{"type":"FeatureCollection","features":[{"type":"Feature","geometry":{"type":"LineString","coordinates":[[122.51707,10.68887],[122.51673,10.68886],[122.51648,10.68891],[122.51639,10.68893],[122.5164,10.68891],[122.51647,10.68844],[122.51652,10.68812],[122.51654,10.68798],[122.51669,10.68705],[122.51673,10.6868],[122.51672,10.68636],[122.51679,10.68605],[122.51685,10.68565],[122.51692,10.6852],[122.51694,10.68499],[122.51697,10.68469],[122.51699,10.6845],[122.517,10.68444],[122.51706,10.68409],[122.51711,10.68359],[122.51712,10.68355],[122.51721,10.68259],[122.51723,10.68236],[122.51725,10.68216],[122.51735,10.68118],[122.51744,10.68023],[122.51766,10.68024],[122.51787,10.68024],[122.51954,10.68031],[122.5212,10.68038],[122.52157,10.68039],[122.52196,10.6804],[122.52333,10.68045],[122.5234,10.68045],[122.52362,10.68046],[122.52389,10.68048],[122.5244,10.6805],[122.52484,10.68052],[122.5249,10.68052],[122.52514,10.68053],[122.52714,10.6806],[122.52719,10.6806],[122.52751,10.68061],[122.5284,10.68063],[122.52884,10.68066],[122.52913,10.68068],[122.52924,10.68069],[122.52964,10.68073],[122.52996,10.68077],[122.53006,10.68078],[122.53051,10.68083],[122.53062,10.68084],[122.53152,10.68095],[122.53209,10.68101],[122.53214,10.68102],[122.53247,10.68106],[122.53295,10.68113],[122.53378,10.68125],[122.53444,10.68129],[122.53571,10.68144],[122.53658,10.68155],[122.53749,10.68167],[122.53789,10.68169],[122.5379,10.68169],[122.53809,10.68172],[122.53832,10.68176],[122.53833,10.68176],[122.53856,10.68182],[122.53883,10.6819],[122.53901,10.68195],[122.53949,10.68214],[122.54002,10.68234],[122.54024,10.68244],[122.54037,10.68249],[122.54065,10.68263],[122.54083,10.68272],[122.54105,10.68283],[122.54151,10.68307],[122.54173,10.68319],[122.54199,10.68337],[122.5425,10.68369],[122.54295,10.68401],[122.54335,10.68431],[122.54339,10.68433],[122.54391,10.68475],[122.54427,10.68507],[122.54454,10.6853],[122.54489,10.68561],[122.54492,10.68564],[122.54531,10.686],[122.54587,10.6865],[122.54594,10.68655],[122.54611,10.68673],[122.54621,10.68682],[122.54639,10.68699],[122.54658,10.68715],[122.54675,10.68731],[122.5469,10.68744],[122.54717,10.68767],[122.54739,10.68787],[122.54742,10.6879],[122.54769,10.68814],[122.5478,10.68826],[122.54787,10.68833],[122.54797,10.68846],[122.54822,10.68876],[122.54847,10.68913],[122.54865,10.68944],[122.54866,10.68948],[122.54869,10.68955],[122.54871,10.68959],[122.54885,10.6899],[122.54937,10.69141],[122.54939,10.69152],[122.54939,10.69155],[122.54939,10.69162],[122.54936,10.69192],[122.54936,10.69204],[122.54966,10.69212],[122.54997,10.6922],[122.55016,10.69225],[122.5504,10.69229],[122.55049,10.6923],[122.55058,10.69229],[122.55111,10.69229],[122.55144,10.6923],[122.55173,10.69231],[122.55177,10.69231],[122.55186,10.69231],[122.55208,10.69232],[122.55213,10.69233],[122.55324,10.69241],[122.55365,10.69243],[122.55386,10.69244],[122.55404,10.69245],[122.55432,10.69247],[122.55444,10.69249],[122.55462,10.69253],[122.55474,10.69257],[122.55479,10.69258],[122.55513,10.69269],[122.55526,10.69275],[122.55535,10.69282],[122.55556,10.69294],[122.55564,10.693],[122.55576,10.69312],[122.55591,10.69325],[122.556,10.69333],[122.55635,10.6936],[122.55644,10.69366],[122.55649,10.69368],[122.55658,10.69369],[122.55663,10.69369],[122.55673,10.69368],[122.55694,10.69364],[122.55707,10.6936],[122.55737,10.69352],[122.55762,10.69346],[122.55774,10.69344],[122.5578,10.69342],[122.55854,10.69329],[122.55872,10.69328],[122.55882,10.69328],[122.55885,10.69329],[122.55892,10.69331],[122.56007,10.69366],[122.56018,10.6937],[122.56175,10.69419],[122.56206,10.69428],[122.56328,10.69466],[122.56427,10.69496],[122.56481,10.69513],[122.56528,10.69527],[122.56639,10.69561],[122.56699,10.6958],[122.56787,10.69608],[122.56901,10.69639],[122.56906,10.6964],[122.5691,10.69619],[122.5691,10.6959],[122.56909,10.69511],[122.56908,10.69488],[122.56909,10.69463],[122.5691,10.69367],[122.5691,10.69309],[122.56911,10.69267],[122.56913,10.69215],[122.56912,10.69215],[122.56912,10.69214],[122.56911,10.69214],[122.5691,10.69214],[122.5691,10.69213],[122.56909,10.69213],[122.56908,10.69212],[122.56908,10.69211],[122.56907,10.69211],[122.56907,10.6921],[122.56906,10.69209],[122.56906,10.69208],[122.56906,10.69207],[122.56906,10.69206],[122.56906,10.69205],[122.56907,10.69205],[122.56907,10.69204],[122.56907,10.69203],[122.56908,10.69203],[122.56908,10.69202],[122.56911,10.692],[122.56913,10.692],[122.56914,10.692],[122.56915,10.692],[122.56916,10.692],[122.56917,10.692],[122.56918,10.69201],[122.56919,10.69201],[122.56919,10.69202],[122.5692,10.69202],[122.5692,10.69203],[122.56975,10.69202],[122.56979,10.69203],[122.56999,10.69206],[122.57001,10.69206],[122.57066,10.69206],[122.57165,10.69198],[122.57166,10.69198],[122.57169,10.69205],[122.57173,10.6921],[122.57178,10.69216],[122.57257,10.69292],[122.57273,10.69287],[122.57293,10.69273],[122.57306,10.6926],[122.57336,10.69232],[122.57388,10.6918],[122.57372,10.69166],[122.57357,10.69168],[122.57251,10.69183],[122.57166,10.69198],[122.57165,10.69198],[122.57066,10.69206],[122.57001,10.69206],[122.56999,10.69206],[122.56979,10.69213],[122.56919,10.69212],[122.56919,10.69213],[122.56918,10.69213],[122.56918,10.69214],[122.56917,10.69214],[122.56916,10.69214],[122.56915,10.69214],[122.56915,10.69215],[122.56914,10.69215],[122.56913,10.69215],[122.56912,10.69215],[122.56912,10.69214],[122.56911,10.69214],[122.5691,10.69214],[122.5691,10.69213],[122.56909,10.69213],[122.56908,10.69212],[122.56908,10.69211],[122.56907,10.69211],[122.56907,10.6921],[122.56906,10.69209],[122.56906,10.69208],[122.56906,10.69207],[122.56906,10.69206],[122.56906,10.69205],[122.56907,10.69205],[122.56907,10.69204],[122.56907,10.69203],[122.56908,10.69203],[122.56908,10.69202],[122.56911,10.692],[122.56913,10.692],[122.56914,10.692],[122.56915,10.692],[122.56916,10.692],[122.56917,10.692],[122.56918,10.69201],[122.56919,10.69201],[122.56919,10.69202],[122.5692,10.69202],[122.5692,10.69203],[122.5696,10.69203],[122.56975,10.69202],[122.56979,10.69203],[122.56979,10.69213],[122.56919,10.69212],[122.56919,10.69213],[122.56918,10.69213],[122.56918,10.69214],[122.56917,10.69214],[122.56916,10.69214],[122.56915,10.69214],[122.56915,10.69215],[122.56914,10.69215],[122.56913,10.69215],[122.5691,10.69309],[122.5691,10.69367],[122.56909,10.69463],[122.56908,10.69488],[122.56909,10.69511],[122.5691,10.6959],[122.5691,10.69619],[122.56906,10.6964],[122.56904,10.6965],[122.56848,10.69634]]},"properties":{"name":"Directions from Arevalo Elementary School, Jocson Street, Villa Arevalo District, Iloilo City, Iloilo to UNITOP, Iloilo City Proper, Iloilo City, Iloilo","styleUrl":"#line-1267FF-5000-nodesc","stroke-opacity":1,"stroke":"#1267ff","stroke-width":5}},{"type":"Feature","geometry":{"type":"LineString","coordinates":[[122.56848,10.69634],[122.56787,10.69617],[122.56698,10.69589],[122.56638,10.69571],[122.56481,10.69523],[122.56425,10.69505],[122.56327,10.69475],[122.56226,10.69444],[122.56175,10.69429],[122.56139,10.69417],[122.56123,10.69412],[122.56034,10.69384],[122.55981,10.69367],[122.55889,10.69336],[122.55892,10.69331],[122.55923,10.6934],[122.56007,10.69366],[122.56018,10.6937],[122.56175,10.69419],[122.56175,10.69429],[122.56139,10.69417],[122.56123,10.69412],[122.56034,10.69384],[122.55981,10.69367],[122.55889,10.69336],[122.55881,10.69335],[122.55872,10.69334],[122.55863,10.69335],[122.55855,10.69336],[122.55835,10.69339],[122.55809,10.69344],[122.55799,10.69346],[122.55739,10.6936],[122.55665,10.69377],[122.55607,10.69388],[122.55567,10.69409],[122.55519,10.69445],[122.5551,10.69449],[122.55503,10.69447],[122.55514,10.69401],[122.55515,10.69396],[122.55517,10.69383],[122.55526,10.69297],[122.55527,10.69294],[122.5553,10.69278],[122.55526,10.69275],[122.55513,10.69269],[122.55479,10.69258],[122.55474,10.69257],[122.55462,10.69253],[122.55444,10.69249],[122.55432,10.69247],[122.55404,10.69245],[122.55386,10.69244],[122.55365,10.69243],[122.55324,10.69241],[122.55213,10.69233],[122.55208,10.69232],[122.55186,10.69231],[122.55177,10.69231],[122.55173,10.69231],[122.55144,10.6923],[122.55111,10.69229],[122.55058,10.69229],[122.55049,10.6923],[122.5504,10.69229],[122.55016,10.69225],[122.54997,10.6922],[122.54966,10.69212],[122.54936,10.69204],[122.54936,10.69192],[122.54939,10.69162],[122.54939,10.69155],[122.54939,10.69152],[122.54937,10.69141],[122.54885,10.6899],[122.54871,10.68959],[122.54869,10.68955],[122.54866,10.68948],[122.54865,10.68944],[122.54847,10.68913],[122.54822,10.68876],[122.54797,10.68846],[122.54787,10.68833],[122.5478,10.68826],[122.54769,10.68814],[122.54742,10.6879],[122.54739,10.68787],[122.54717,10.68767],[122.5469,10.68744],[122.54675,10.68731],[122.54658,10.68715],[122.54639,10.68699],[122.54621,10.68682],[122.54611,10.68673],[122.54594,10.68655],[122.54587,10.6865],[122.5457,10.68635],[122.54531,10.686],[122.54492,10.68564],[122.54489,10.68561],[122.54454,10.6853],[122.54427,10.68507],[122.54391,10.68475],[122.54339,10.68433],[122.54335,10.68431],[122.54295,10.68401],[122.5425,10.68369],[122.54199,10.68337],[122.54173,10.68319],[122.54151,10.68307],[122.54105,10.68283],[122.54083,10.68272],[122.54065,10.68263],[122.54037,10.68249],[122.54024,10.68244],[122.54002,10.68234],[122.53949,10.68214],[122.53901,10.68195],[122.53883,10.6819],[122.53856,10.68182],[122.53833,10.68176],[122.53832,10.68176],[122.53809,10.68172],[122.5379,10.68169],[122.53789,10.68169],[122.53749,10.68167],[122.53658,10.68155],[122.53571,10.68144],[122.53444,10.68129],[122.53378,10.68125],[122.53295,10.68113],[122.53247,10.68106],[122.53214,10.68102],[122.53209,10.68101],[122.53152,10.68095],[122.53062,10.68084],[122.53051,10.68083],[122.53006,10.68078],[122.52996,10.68077],[122.52964,10.68073],[122.52924,10.68069],[122.52913,10.68068],[122.52884,10.68066],[122.5284,10.68063],[122.52751,10.68061],[122.52719,10.6806],[122.52714,10.6806],[122.52514,10.68053],[122.5249,10.68052],[122.52484,10.68052],[122.5244,10.6805],[122.52389,10.68048],[122.52362,10.68046],[122.5234,10.68045],[122.52333,10.68045],[122.52196,10.6804],[122.52164,10.68039],[122.52157,10.68039],[122.5212,10.68038],[122.51954,10.68031],[122.51787,10.68024],[122.51766,10.68024],[122.51744,10.68023],[122.51735,10.68118],[122.51725,10.68216],[122.51723,10.68236],[122.51721,10.68259],[122.51712,10.68355],[122.51711,10.68359],[122.51706,10.68409],[122.517,10.68444],[122.51699,10.6845],[122.51697,10.68469],[122.51694,10.68499],[122.51692,10.6852],[122.51685,10.68565],[122.51679,10.68605],[122.51672,10.68636],[122.51673,10.6868],[122.51669,10.68705],[122.51691,10.68707],[122.51763,10.68716],[122.51909,10.68733],[122.51935,10.68736],[122.5195,10.68738],[122.5196,10.68739],[122.51991,10.68743],[122.52011,10.68745],[122.52102,10.68755],[122.52124,10.68758],[122.52155,10.68761],[122.5215,10.6881],[122.52149,10.68818],[122.5214,10.68896],[122.5211,10.68895],[122.52089,10.68896],[122.52089,10.68902],[122.52089,10.68906],[122.52089,10.68908],[122.52089,10.68911],[122.52091,10.68913],[122.52093,10.68915],[122.52096,10.68916],[122.52101,10.68916],[122.52108,10.68916],[122.5211,10.68895],[122.52089,10.68896],[122.52085,10.68896],[122.52072,10.68895],[122.51985,10.68894],[122.51955,10.68894],[122.51947,10.68894],[122.51826,10.68891],[122.51824,10.68891],[122.51788,10.6889],[122.51707,10.68887]]},"properties":{"name":"Directions from UNITOP, Iloilo City Proper, Iloilo City, Iloilo to Arevalo Elementary School, Jocson Street, Villa Arevalo District, Iloilo City, Iloilo","styleUrl":"#line-1267FF-5000-nodesc","stroke-opacity":1,"stroke":"#1267ff","stroke-width":5}}]}