{"type":"FeatureCollection","features":[{"type":"Feature","geometry":{"type":"LineString","coordinates":[[122.54654,10.71691],[122.54642,10.71674],[122.54631,10.71655],[122.54623,10.71642],[122.54612,10.71614],[122.54609,10.71606],[122.54606,10.71599],[122.54596,10.71571],[122.54589,10.71546],[122.54584,10.71518],[122.54578,10.71493],[122.5459,10.71489],[122.54597,10.71514],[122.54607,10.71566],[122.54621,10.7161],[122.54648,10.71666],[122.54654,10.71676],[122.54666,10.71693],[122.54698,10.71735],[122.54706,10.71745],[122.54721,10.71764],[122.54732,10.71779],[122.54755,10.71814],[122.54769,10.71837],[122.54775,10.71849],[122.54778,10.71854],[122.54784,10.71855],[122.54807,10.71857],[122.5485,10.71861],[122.54875,10.71863],[122.54918,10.71868],[122.54983,10.71874],[122.54999,10.71876],[122.55008,10.71877],[122.55014,10.71878],[122.55021,10.7188],[122.5504,10.71886],[122.55058,10.71892],[122.55103,10.71909],[122.55139,10.71923],[122.55199,10.71946],[122.55212,10.7195],[122.55219,10.71935],[122.55225,10.71919],[122.5523,10.71909],[122.55243,10.71883],[122.55243,10.71881],[122.55258,10.71833],[122.5527,10.71783],[122.55278,10.71738],[122.55282,10.71679],[122.55281,10.71614],[122.55277,10.7158],[122.55277,10.71577],[122.55273,10.71555],[122.55261,10.71504],[122.55255,10.71489],[122.55244,10.71437],[122.55243,10.71431],[122.55217,10.71337],[122.55205,10.7129],[122.55194,10.71245],[122.55181,10.71194],[122.55176,10.71169],[122.55171,10.71146],[122.55167,10.71127],[122.55164,10.7111],[122.55158,10.7107],[122.55157,10.71049],[122.55156,10.71032],[122.55156,10.71025],[122.55158,10.70983],[122.55159,10.70964],[122.55162,10.70945],[122.55165,10.70927],[122.55168,10.70912],[122.55171,10.70894],[122.5518,10.7086],[122.55209,10.70756],[122.55214,10.70737],[122.55227,10.70687],[122.55235,10.70658],[122.55253,10.70591],[122.55271,10.70523],[122.55276,10.705],[122.55282,10.70476],[122.55288,10.70452],[122.55296,10.70417],[122.55311,10.70364],[122.55319,10.70333],[122.55337,10.70268],[122.55339,10.70263],[122.55345,10.70235],[122.55364,10.70168],[122.55382,10.70101],[122.55384,10.70095],[122.55385,10.70089],[122.55388,10.70078],[122.55406,10.7001],[122.55415,10.69985],[122.55419,10.6997],[122.55427,10.69971],[122.55451,10.69975],[122.55479,10.69978],[122.55493,10.6998],[122.55528,10.69984],[122.55558,10.69988],[122.55567,10.6999],[122.55574,10.69991],[122.55575,10.69992],[122.55578,10.69993],[122.55587,10.69994],[122.55599,10.69995],[122.55648,10.7],[122.55658,10.70001],[122.55728,10.70008],[122.55733,10.70008],[122.55758,10.70011],[122.55774,10.70012],[122.55793,10.70013],[122.55921,10.70025],[122.55989,10.7003],[122.55992,10.70031],[122.56024,10.70034],[122.56075,10.70039],[122.56101,10.70044],[122.56111,10.70046],[122.5613,10.70051],[122.56135,10.70052],[122.56149,10.70055],[122.56177,10.70059],[122.56222,10.70066],[122.56285,10.70076],[122.563,10.70079],[122.56344,10.70085],[122.56387,10.70091],[122.56464,10.70103],[122.56486,10.70106],[122.56502,10.70108],[122.56532,10.70112],[122.5655,10.70115],[122.56553,10.70115],[122.56574,10.70118],[122.56646,10.70128],[122.56696,10.70135],[122.56709,10.70137],[122.56748,10.70142],[122.56771,10.70146],[122.5679,10.7015],[122.56812,10.70155],[122.56813,10.70155],[122.56823,10.70158],[122.56833,10.70163],[122.5684,10.70171],[122.56846,10.70168],[122.56885,10.70157],[122.56895,10.70155],[122.56898,10.70154],[122.56902,10.70153],[122.56902,10.70152],[122.56903,10.70152],[122.56903,10.70151],[122.56903,10.7015],[122.56904,10.7015],[122.56904,10.70149],[122.56905,10.70148],[122.5691,10.70129],[122.56911,10.70096],[122.56911,10.70009],[122.56911,10.69931],[122.56907,10.69914],[122.56906,10.69818],[122.56906,10.69797],[122.56906,10.69795],[122.56906,10.69781],[122.56905,10.69676],[122.56905,10.69667],[122.56905,10.69663],[122.56906,10.69659],[122.56907,10.69658],[122.5691,10.69651],[122.56915,10.69643],[122.56927,10.69629],[122.56986,10.69557],[122.57049,10.69475],[122.5705,10.69474],[122.57101,10.69392],[122.57154,10.69363],[122.57162,10.69358],[122.57172,10.69352],[122.57203,10.69331],[122.57257,10.69292],[122.57273,10.69287],[122.57293,10.69273],[122.57336,10.69232],[122.57388,10.6918],[122.57372,10.69166],[122.57357,10.69168],[122.57251,10.69183],[122.57166,10.69198],[122.57165,10.69198],[122.57066,10.69206],[122.57001,10.69206],[122.56999,10.69206],[122.56979,10.69213],[122.56919,10.69212],[122.56919,10.69213],[122.56918,10.69213],[122.56918,10.69214],[122.56917,10.69214],[122.56916,10.69214],[122.56915,10.69214],[122.56915,10.69215],[122.56914,10.69215],[122.56913,10.69215],[122.56912,10.69215],[122.56912,10.69214],[122.56911,10.69214],[122.5691,10.69214],[122.5691,10.69213],[122.56909,10.69213],[122.56908,10.69212],[122.56908,10.69211],[122.56907,10.69211],[122.56907,10.6921],[122.56906,10.69209],[122.56906,10.69208],[122.56906,10.69207],[122.56906,10.69206],[122.56906,10.69205],[122.56907,10.69205],[122.56907,10.69204],[122.56907,10.69203],[122.56908,10.69203],[122.56908,10.69202],[122.56911,10.692],[122.56913,10.692],[122.56914,10.692],[122.56915,10.692],[122.56916,10.692],[122.56917,10.692],[122.56918,10.69201],[122.56919,10.69201],[122.56919,10.69202],[122.5692,10.69202],[122.5692,10.69203],[122.5696,10.69203],[122.56975,10.69202],[122.56979,10.69203],[122.56979,10.69213],[122.56919,10.69212],[122.56919,10.69213],[122.56918,10.69213],[122.56918,10.69214],[122.56917,10.69214],[122.56916,10.69214],[122.56915,10.69214],[122.56915,10.69215],[122.56914,10.69215],[122.56913,10.69215],[122.5691,10.69309],[122.5691,10.69367],[122.56909,10.69463],[122.56908,10.69488],[122.56909,10.69511],[122.5691,10.6959],[122.5691,10.69619],[122.56906,10.6964],[122.56904,10.6965],[122.56848,10.69634],[122.56787,10.69617],[122.56698,10.69589],[122.56638,10.69571],[122.56481,10.69523],[122.56481,10.69572],[122.5648,10.69748],[122.56479,10.69768],[122.5644,10.69763],[122.56429,10.69761],[122.56383,10.69755],[122.56372,10.69753],[122.56328,10.69746],[122.56289,10.69741],[122.56208,10.6973],[122.56173,10.69726],[122.56175,10.69788],[122.56175,10.69804],[122.56174,10.69894],[122.56175,10.69947],[122.56177,10.69997],[122.56178,10.70041],[122.56177,10.70059],[122.56175,10.7007],[122.56157,10.70067],[122.56142,10.70064],[122.5614,10.70064],[122.56132,10.70062],[122.56099,10.70055],[122.56081,10.70052],[122.56075,10.70051],[122.56063,10.70049],[122.56055,10.70047],[122.56045,10.70046],[122.56037,10.70045]]},"properties":{"name":"Directions from Festive Walk Mall, Megaworld Boulevard, Mandurriao, Iloilo City, Iloilo to JD Bakery Cafe – Gen. Luna, General Luna Street, La Paz, Iloilo City, Iloilo","styleUrl":"#line-1267FF-5000-nodesc","stroke-opacity":1,"stroke":"#1267ff","stroke-width":5}},{"type":"Feature","geometry":{"type":"LineString","coordinates":[[122.56037,10.70045],[122.56016,10.70044],[122.55991,10.70042],[122.55986,10.70041],[122.55982,10.7004],[122.55972,10.70038],[122.55793,10.70023],[122.55776,10.70022],[122.55759,10.7002],[122.5574,10.70019],[122.55729,10.70018],[122.55711,10.70017],[122.55584,10.70005],[122.55576,10.70004],[122.55573,10.70004],[122.55569,10.70004],[122.55561,10.70004],[122.55531,10.7],[122.55476,10.69993],[122.55463,10.69992],[122.55444,10.69989],[122.5544,10.69992],[122.55438,10.69993],[122.55436,10.69994],[122.55434,10.69995],[122.55432,10.69997],[122.5543,10.69999],[122.55428,10.70001],[122.55426,10.70003],[122.55417,10.70014],[122.55397,10.70092],[122.55395,10.701],[122.55393,10.70107],[122.55374,10.70173],[122.55356,10.70237],[122.55347,10.70271],[122.55343,10.70289],[122.55322,10.70368],[122.55304,10.70431],[122.55282,10.70527],[122.55272,10.70563],[122.55261,10.70604],[122.55239,10.70686],[122.55236,10.70696],[122.55219,10.70758],[122.55197,10.70847],[122.55195,10.70852],[122.55191,10.70871],[122.55187,10.70887],[122.55183,10.70904],[122.5518,10.7092],[122.55177,10.7094],[122.55173,10.70967],[122.55172,10.70996],[122.55172,10.7101],[122.55172,10.71026],[122.55172,10.7104],[122.55173,10.71055],[122.55174,10.71069],[122.55175,10.71089],[122.55176,10.71098],[122.55177,10.71109],[122.55179,10.71124],[122.55182,10.71143],[122.55188,10.7117],[122.55191,10.7118],[122.55193,10.71188],[122.55226,10.71314],[122.5523,10.71332],[122.55258,10.71427],[122.55266,10.71462],[122.55279,10.71516],[122.55283,10.71535],[122.55285,10.71549],[122.5529,10.71573],[122.5529,10.71575],[122.55292,10.716],[122.55293,10.71623],[122.55293,10.71647],[122.55293,10.71672],[122.55292,10.71697],[122.5529,10.71715],[122.55288,10.71734],[122.55286,10.71753],[122.55283,10.7177],[122.55279,10.7179],[122.55275,10.7181],[122.55268,10.71836],[122.55262,10.71858],[122.55254,10.71881],[122.55247,10.71901],[122.55241,10.71917],[122.55234,10.71935],[122.55225,10.71954],[122.55212,10.7195],[122.55219,10.71935],[122.55225,10.71919],[122.5523,10.71909],[122.55243,10.71883],[122.55243,10.71881],[122.55258,10.71833],[122.5527,10.71783],[122.55278,10.71738],[122.55282,10.71679],[122.55281,10.71614],[122.55279,10.71599],[122.55277,10.7158],[122.55277,10.71577],[122.55273,10.71555],[122.55261,10.71504],[122.55255,10.71489],[122.55243,10.71431],[122.55217,10.71337],[122.55205,10.7129],[122.55194,10.71245],[122.55181,10.71194],[122.55176,10.71169],[122.55171,10.71146],[122.55167,10.71127],[122.55164,10.7111],[122.55158,10.7107],[122.55157,10.71049],[122.55156,10.71032],[122.55156,10.71025],[122.55158,10.70983],[122.55159,10.70964],[122.55101,10.70938],[122.55055,10.70918],[122.55024,10.70903],[122.55008,10.70896],[122.55005,10.70894],[122.55001,10.70892],[122.54968,10.70873],[122.54951,10.70862],[122.54935,10.7085],[122.54913,10.70831],[122.5491,10.70833],[122.54907,10.70834],[122.54905,10.70835],[122.54903,10.70835],[122.54901,10.70836],[122.54899,10.70836],[122.54896,10.70836],[122.54894,10.70835],[122.54892,10.70835],[122.5489,10.70834],[122.54888,10.70833],[122.54886,10.70832],[122.54883,10.70829],[122.54881,10.70827],[122.5488,10.70826],[122.54879,10.70824],[122.54878,10.70822],[122.54877,10.7082],[122.54877,10.70818],[122.54876,10.70815],[122.54876,10.70813],[122.54876,10.70811],[122.54877,10.70809],[122.54877,10.70807],[122.54878,10.70804],[122.54879,10.70802],[122.5488,10.70801],[122.54881,10.70798],[122.54886,10.70795],[122.54888,10.70794],[122.5489,10.70793],[122.54892,10.70792],[122.54894,10.70791],[122.54897,10.70791],[122.54899,10.70791],[122.54901,10.70791],[122.54903,10.70791],[122.54908,10.70792],[122.54914,10.70766],[122.54919,10.70759],[122.54922,10.70757],[122.54934,10.70732],[122.54981,10.70649],[122.54927,10.70628],[122.54846,10.70597],[122.54823,10.70588],[122.54804,10.70583],[122.54794,10.7058],[122.54783,10.70579],[122.54752,10.70578],[122.54713,10.70578],[122.5468,10.70578],[122.54664,10.7058],[122.54654,10.70584],[122.54646,10.70591],[122.54606,10.70559],[122.54601,10.70556],[122.54573,10.70533],[122.54534,10.70506],[122.54526,10.705],[122.54505,10.70482],[122.54495,10.70475],[122.5447,10.70454],[122.54462,10.70447],[122.54427,10.70415],[122.54415,10.70406],[122.54412,10.70405],[122.54405,10.70402],[122.54392,10.70424],[122.54386,10.70435],[122.5438,10.70444],[122.54365,10.70468],[122.54361,10.70475],[122.54341,10.70507],[122.54338,10.70511],[122.54337,10.70512],[122.54322,10.70544],[122.54319,10.70553],[122.54314,10.70565],[122.543,10.70601],[122.54299,10.70605],[122.54296,10.70615],[122.54294,10.7062],[122.54263,10.70737],[122.54273,10.70753],[122.54283,10.70768],[122.54306,10.7081],[122.54324,10.70856],[122.54349,10.70941],[122.5435,10.70948],[122.54352,10.70957],[122.54355,10.7098],[122.54365,10.71017],[122.54368,10.71027],[122.54383,10.71063],[122.54397,10.71098],[122.54401,10.71108],[122.54429,10.71164],[122.54503,10.7132],[122.54513,10.71337],[122.54541,10.71388],[122.54553,10.7141],[122.54579,10.71467],[122.5459,10.71489],[122.54597,10.71514],[122.54607,10.71566],[122.54621,10.7161],[122.54648,10.71666],[122.54654,10.71676],[122.54666,10.71693],[122.54698,10.71735],[122.54706,10.71745],[122.54699,10.7175],[122.54698,10.71748],[122.54661,10.71702],[122.54658,10.71698],[122.54654,10.71691]]},"properties":{"name":"Directions from JD Bakery Cafe – Gen. Luna, General Luna Street, La Paz, Iloilo City, Iloilo to Festive Walk Mall, Megaworld Boulevard, Mandurriao, Iloilo City, Iloilo","styleUrl":"#line-1267FF-5000-nodesc","stroke-opacity":1,"stroke":"#1267ff","stroke-width":5}}]}