{"type":"FeatureCollection","features":[{"type":"Feature","geometry":{"type":"LineString","coordinates":[[122.5801,10.71741],[122.58026,10.71724],[122.5803,10.7172],[122.5804,10.7171],[122.58076,10.71669],[122.58083,10.71659],[122.58086,10.71652],[122.58087,10.71649],[122.58088,10.71645],[122.58088,10.71641],[122.58089,10.71637],[122.58089,10.71595],[122.58089,10.7159],[122.5809,10.71588],[122.5809,10.71585],[122.5809,10.71583],[122.58091,10.71581],[122.58091,10.71579],[122.58092,10.71577],[122.58093,10.71575],[122.58097,10.71571],[122.58145,10.71516],[122.58152,10.71501],[122.58153,10.71496],[122.58154,10.71492],[122.58154,10.71487],[122.58151,10.71459],[122.58145,10.71404],[122.58144,10.71399],[122.58144,10.71391],[122.58117,10.71389],[122.58098,10.71387],[122.58049,10.71383],[122.57981,10.71375],[122.57963,10.71373],[122.57928,10.71372],[122.579,10.71373],[122.57871,10.71375],[122.57865,10.71375],[122.57804,10.7138],[122.57742,10.71385],[122.577,10.71388],[122.57658,10.71392],[122.57626,10.71394],[122.57617,10.71395],[122.57608,10.71396],[122.57603,10.71398],[122.576,10.71398],[122.57594,10.71402],[122.57576,10.71413],[122.57551,10.7143],[122.57455,10.71357],[122.57433,10.7134],[122.5742,10.71329],[122.57383,10.71303],[122.57356,10.71281],[122.57348,10.71275],[122.57315,10.7125],[122.57278,10.71225],[122.57236,10.71194],[122.5722,10.71182],[122.57194,10.71164],[122.57191,10.71161],[122.5716,10.71202],[122.57151,10.71216],[122.57124,10.71254],[122.57104,10.71282],[122.57088,10.71305],[122.57082,10.71314],[122.57066,10.71337],[122.57033,10.71373],[122.57004,10.71412],[122.56997,10.71422],[122.56989,10.71432],[122.5698,10.71445],[122.56946,10.71495],[122.56943,10.715],[122.56884,10.71599],[122.56877,10.71608],[122.56868,10.7162],[122.56862,10.7163],[122.56848,10.71648],[122.56824,10.71683],[122.56824,10.71684],[122.56823,10.71686],[122.56778,10.71765],[122.56768,10.71784],[122.56761,10.71796],[122.56752,10.7181],[122.56739,10.71832],[122.56733,10.71841],[122.56722,10.71859],[122.56693,10.71905],[122.56682,10.71922],[122.56664,10.71953],[122.56655,10.7197],[122.56652,10.71975],[122.56647,10.71983],[122.56627,10.7201],[122.56597,10.72043],[122.5657,10.72064],[122.56535,10.72023],[122.5649,10.71968],[122.56489,10.71967],[122.5646,10.71933],[122.56431,10.71897],[122.56397,10.71857],[122.56393,10.71851],[122.56441,10.71805],[122.56488,10.71757],[122.56495,10.71749],[122.56498,10.71747],[122.56502,10.71743],[122.56508,10.71738],[122.56519,10.71724],[122.56527,10.71714],[122.56536,10.71702],[122.56563,10.71669],[122.5657,10.71659],[122.56602,10.71619],[122.56627,10.71589],[122.56639,10.71577],[122.56666,10.71544],[122.56675,10.71533],[122.56696,10.71505],[122.56702,10.71497],[122.56705,10.71494],[122.56722,10.71472],[122.56737,10.71452],[122.56769,10.71415],[122.56814,10.71355],[122.56866,10.71289],[122.5687,10.71283],[122.5689,10.71256],[122.56911,10.71233],[122.56943,10.71188],[122.5695,10.71178],[122.57037,10.71045],[122.57023,10.71033],[122.56963,10.70983],[122.56956,10.70977],[122.56899,10.70932],[122.56891,10.70925],[122.56883,10.70918],[122.56849,10.70891],[122.56818,10.70865],[122.56799,10.70849],[122.56786,10.70838],[122.56772,10.70851],[122.5673,10.70885],[122.5671,10.70901],[122.56691,10.70915],[122.56685,10.70918]]},"properties":{"name":"Directions from Ticud Terminal, La Paz, Iloilo City, Iloilo to 113 Luna St, La Paz, Iloilo City, 5000 Iloilo, Philippines","styleUrl":"#line-1267FF-5000-nodesc","stroke-opacity":1,"stroke":"#1267ff","stroke-width":5}},{"type":"Feature","geometry":{"type":"LineString","coordinates":[[122.56676,10.70898],[122.56702,10.70807],[122.5671,10.70778],[122.56713,10.70767],[122.56716,10.70749],[122.5672,10.70733],[122.56728,10.70698],[122.56734,10.7068],[122.5674,10.70663],[122.56741,10.70658],[122.56749,10.70637],[122.56752,10.70627],[122.56769,10.70575],[122.56786,10.70521],[122.5679,10.70507],[122.56791,10.70498],[122.56793,10.70469],[122.56793,10.70465],[122.56793,10.70452],[122.56796,10.70408],[122.56796,10.70398],[122.56797,10.70383],[122.56799,10.70356],[122.56804,10.70323],[122.56806,10.70303],[122.56807,10.70298],[122.5681,10.70265],[122.5681,10.70261],[122.56814,10.70224],[122.56816,10.7021],[122.56828,10.70183],[122.56827,10.70182],[122.56813,10.7017],[122.56806,10.70165],[122.56802,10.70162],[122.56798,10.70161],[122.56792,10.70159],[122.56785,10.70158],[122.56772,10.70155],[122.56763,10.70154],[122.5676,10.70153],[122.56705,10.70146],[122.56695,10.70145],[122.56646,10.70138],[122.56588,10.7013],[122.56552,10.70125],[122.56549,10.70125],[122.56539,10.70123],[122.5652,10.70121],[122.56484,10.70116],[122.5639,10.70101],[122.56385,10.701],[122.56353,10.70095],[122.56345,10.70094],[122.56307,10.70088],[122.563,10.70087],[122.56277,10.70085],[122.56265,10.70085],[122.56209,10.70076],[122.56191,10.70073],[122.56175,10.7007],[122.56177,10.70059],[122.56178,10.70041],[122.56177,10.69997],[122.56175,10.69947],[122.56174,10.69894],[122.56175,10.69804],[122.56175,10.69788],[122.56174,10.69747],[122.56173,10.69726],[122.56172,10.69681],[122.56172,10.69667],[122.56172,10.69559],[122.56172,10.69487],[122.56174,10.69455],[122.56175,10.69429],[122.56175,10.69419],[122.56206,10.69428],[122.56328,10.69466],[122.56427,10.69496],[122.56481,10.69513],[122.56528,10.69527],[122.56639,10.69561],[122.56699,10.6958],[122.56787,10.69608],[122.56875,10.69632],[122.56906,10.6964],[122.5691,10.69619],[122.5691,10.6959],[122.56909,10.69511],[122.56908,10.69488],[122.56909,10.69463],[122.5691,10.69367],[122.5691,10.69309],[122.56913,10.69215],[122.56912,10.69215],[122.56912,10.69214],[122.56911,10.69214],[122.5691,10.69214],[122.5691,10.69213],[122.56909,10.69213],[122.56908,10.69212],[122.56908,10.69211],[122.56907,10.69211],[122.56907,10.6921],[122.56906,10.69209],[122.56906,10.69208],[122.56906,10.69207],[122.56906,10.69206],[122.56906,10.69205],[122.56907,10.69205],[122.56907,10.69204],[122.56907,10.69203],[122.56908,10.69203],[122.56908,10.69202],[122.56911,10.692],[122.56913,10.692],[122.56914,10.692],[122.56915,10.692],[122.56916,10.692],[122.56917,10.692],[122.56918,10.69201],[122.56919,10.69201],[122.56919,10.69202],[122.5692,10.69202],[122.5692,10.69203],[122.56975,10.69202],[122.56979,10.69203],[122.56999,10.69206],[122.57001,10.69206],[122.57066,10.69206],[122.57165,10.69198],[122.57166,10.69198],[122.57251,10.69183],[122.57357,10.69168],[122.57372,10.69166],[122.57388,10.6918],[122.5743,10.69143],[122.5748,10.69106],[122.57498,10.69094],[122.57566,10.69046],[122.57642,10.68993],[122.57691,10.69052],[122.57689,10.69054],[122.57656,10.69079],[122.57601,10.69115],[122.57549,10.69148],[122.57542,10.69153],[122.57534,10.69158],[122.57508,10.69177],[122.57497,10.69184],[122.57434,10.69228],[122.57388,10.6918],[122.57336,10.69232],[122.57293,10.69273],[122.57273,10.69287],[122.57264,10.69299],[122.57208,10.69337],[122.57207,10.69338],[122.57175,10.69357],[122.57164,10.69363],[122.57156,10.69368],[122.57104,10.69397],[122.57056,10.69486],[122.56992,10.69561],[122.56926,10.69643],[122.56924,10.69646],[122.56921,10.69654],[122.5692,10.69655],[122.56918,10.69659],[122.56917,10.69662],[122.56915,10.69667],[122.56914,10.69673],[122.56913,10.69684],[122.56912,10.69695],[122.56915,10.69781],[122.56914,10.69795],[122.56914,10.69797],[122.56914,10.69819],[122.56916,10.69914],[122.56911,10.69931],[122.56911,10.70009],[122.56911,10.70096],[122.5691,10.70129],[122.56915,10.7014],[122.56917,10.70146],[122.56918,10.70148],[122.56919,10.70148],[122.56919,10.70149],[122.5692,10.70149],[122.5692,10.7015],[122.56921,10.70151],[122.56921,10.70152],[122.56921,10.70153],[122.56922,10.70154],[122.56922,10.70155],[122.56922,10.70156],[122.56922,10.70157],[122.56921,10.70157],[122.56921,10.70158],[122.56921,10.70159],[122.56921,10.7016],[122.5692,10.7016],[122.5692,10.70161],[122.56919,10.70162],[122.56918,10.70163],[122.56917,10.70163],[122.56917,10.70164],[122.56916,10.70164],[122.56915,10.70164],[122.56915,10.70165],[122.56914,10.70165],[122.56913,10.70165],[122.56882,10.70177],[122.56871,10.7018],[122.56855,10.70185],[122.5684,10.70195],[122.56834,10.70203],[122.56826,10.70215],[122.56814,10.70224],[122.56813,10.7023]]},"properties":{"name":"Directions from No. 119 Luna St, La Paz, Iloilo City, Iloilo, Philippines to PH29+W9F, Iloilo City Proper, Iloilo City, Iloilo, Philippines","styleUrl":"#line-1267FF-5000-nodesc","stroke-opacity":1,"stroke":"#1267ff","stroke-width":5}}]}