{"type":"FeatureCollection","features":[{"type":"Feature","geometry":{"type":"LineString","coordinates":[[122.54894,10.69864],[122.54917,10.69877],[122.54939,10.69888],[122.54952,10.69896],[122.54953,10.699],[122.54953,10.69903],[122.54953,10.69904],[122.54952,10.69907],[122.54951,10.69911],[122.5495,10.69914],[122.54948,10.69916],[122.54947,10.69919],[122.54942,10.69924],[122.5493,10.69923],[122.54887,10.69916],[122.54851,10.6991],[122.54764,10.69893],[122.54733,10.69889],[122.54731,10.69888],[122.5472,10.69887],[122.54689,10.6988],[122.5466,10.69876],[122.54659,10.69876],[122.54652,10.69874],[122.54626,10.69868],[122.54609,10.69863],[122.54582,10.69856],[122.54566,10.69852],[122.5455,10.69844],[122.5453,10.69836],[122.54493,10.69817],[122.54454,10.69796],[122.54409,10.69774],[122.54408,10.69773],[122.54341,10.69734],[122.54373,10.69688],[122.54382,10.69677],[122.54408,10.6964],[122.5441,10.69638],[122.54414,10.69633],[122.54425,10.6962],[122.54427,10.69617],[122.54434,10.6961],[122.54437,10.69607],[122.54445,10.69599],[122.54488,10.6953],[122.54534,10.69477],[122.54535,10.69477],[122.54546,10.69463],[122.54554,10.69455],[122.54564,10.69445],[122.54617,10.69393],[122.54649,10.69361],[122.54672,10.69338],[122.54676,10.69335],[122.54679,10.69332],[122.54694,10.69318],[122.54701,10.69311],[122.54728,10.69287],[122.54747,10.6927],[122.54752,10.69266],[122.54776,10.69247],[122.54822,10.6922],[122.54835,10.69214],[122.54853,10.69207],[122.54867,10.692],[122.54871,10.69199],[122.54874,10.69198],[122.54883,10.69196],[122.54899,10.69196],[122.54917,10.692],[122.5493,10.69203],[122.54936,10.69204],[122.54966,10.69212],[122.54997,10.6922],[122.55016,10.69225],[122.5504,10.69229],[122.55049,10.6923],[122.55058,10.69229],[122.55111,10.69229],[122.55144,10.6923],[122.55173,10.69231],[122.55177,10.69231],[122.55186,10.69231],[122.55208,10.69232],[122.55213,10.69233],[122.55324,10.69241],[122.55365,10.69243],[122.55386,10.69244],[122.55404,10.69245],[122.55432,10.69247],[122.55444,10.69249],[122.55462,10.69253],[122.55474,10.69257],[122.55479,10.69258],[122.55513,10.69269],[122.55526,10.69275],[122.5553,10.69278],[122.55536,10.69282],[122.55547,10.69289],[122.55556,10.69294],[122.55564,10.693],[122.55576,10.69312],[122.55591,10.69325],[122.556,10.69333],[122.55635,10.6936],[122.55644,10.69366],[122.55649,10.69368],[122.55658,10.69369],[122.55663,10.69369],[122.55673,10.69368],[122.55694,10.69364],[122.55707,10.6936],[122.55737,10.69352],[122.55762,10.69346],[122.55774,10.69344],[122.5578,10.69342],[122.55854,10.69329],[122.55872,10.69328],[122.55882,10.69328],[122.55885,10.69329],[122.55892,10.69331],[122.56007,10.69366],[122.56018,10.6937],[122.56175,10.69419],[122.56206,10.69428],[122.56328,10.69466],[122.56427,10.69496],[122.56481,10.69513],[122.56528,10.69527],[122.56538,10.6953],[122.56639,10.69561],[122.56699,10.6958],[122.56787,10.69608],[122.56906,10.6964],[122.5691,10.69619],[122.5691,10.6959],[122.56909,10.69511],[122.56908,10.69488],[122.56909,10.69463],[122.5691,10.69367],[122.5691,10.69309],[122.56911,10.69267],[122.56913,10.69215],[122.56912,10.69215],[122.56912,10.69214],[122.56911,10.69214],[122.5691,10.69214],[122.5691,10.69213],[122.56909,10.69213],[122.56908,10.69212],[122.56908,10.69211],[122.56907,10.69211],[122.56907,10.6921],[122.56906,10.69209],[122.56906,10.69208],[122.56906,10.69207],[122.56906,10.69206],[122.56906,10.69205],[122.56907,10.69205],[122.56907,10.69204],[122.56907,10.69203],[122.56908,10.69203],[122.56908,10.69202],[122.56911,10.692],[122.56913,10.692],[122.56914,10.692],[122.56915,10.692],[122.56916,10.692],[122.56917,10.692],[122.56918,10.69201],[122.56919,10.69201],[122.56919,10.69202],[122.5692,10.69202],[122.5692,10.69203],[122.56975,10.69202],[122.56979,10.69203],[122.56999,10.69206],[122.57001,10.69206],[122.57066,10.69206],[122.57165,10.69198],[122.57166,10.69198],[122.57169,10.69205],[122.57173,10.6921],[122.57178,10.69216],[122.57257,10.69292],[122.57273,10.69287],[122.57293,10.69273],[122.57332,10.69236],[122.57336,10.69232],[122.57388,10.6918],[122.57372,10.69166],[122.57357,10.69168],[122.57251,10.69183],[122.57211,10.6919],[122.57166,10.69198],[122.57165,10.69198],[122.57066,10.69206],[122.57001,10.69206],[122.56999,10.69206]]},"properties":{"name":"Directions from Iloilo City National High School, Molo, Iloilo City, Iloilo to Basement Level, Gaisano Iloilo, La Paz, Iloilo City, Iloilo, Iloilo City Proper, Iloilo City, Iloilo, Philippines","styleUrl":"#line-1267FF-5000-nodesc","stroke-opacity":1,"stroke":"#1267ff","stroke-width":5}},{"type":"Feature","geometry":{"type":"LineString","coordinates":[[122.56999,10.69206],[122.56979,10.69213],[122.56919,10.69212],[122.56919,10.69213],[122.56918,10.69213],[122.56918,10.69214],[122.56917,10.69214],[122.56916,10.69214],[122.56915,10.69214],[122.56915,10.69215],[122.56914,10.69215],[122.56913,10.69215],[122.56912,10.69215],[122.56912,10.69214],[122.56911,10.69214],[122.5691,10.69214],[122.5691,10.69213],[122.56909,10.69213],[122.56908,10.69212],[122.56908,10.69211],[122.56907,10.69211],[122.56907,10.6921],[122.56906,10.69209],[122.56906,10.69208],[122.56906,10.69207],[122.56906,10.69206],[122.56906,10.69205],[122.56907,10.69205],[122.56907,10.69204],[122.56907,10.69203],[122.56908,10.69203],[122.56908,10.69202],[122.56911,10.692],[122.56913,10.692],[122.56906,10.6911],[122.56944,10.69109],[122.56906,10.6911],[122.56913,10.692],[122.56914,10.692],[122.56915,10.692],[122.56916,10.692],[122.56917,10.692],[122.56918,10.69201],[122.56919,10.69201],[122.56919,10.69202],[122.5692,10.69202],[122.5692,10.69203],[122.56921,10.69204],[122.56921,10.69205],[122.56921,10.69206],[122.56921,10.69207],[122.56921,10.69208],[122.56921,10.69209],[122.56921,10.6921],[122.5692,10.69211],[122.5692,10.69212],[122.56919,10.69212],[122.56919,10.69213],[122.56918,10.69213],[122.56918,10.69214],[122.56917,10.69214],[122.56916,10.69214],[122.56915,10.69214],[122.56915,10.69215],[122.56914,10.69215],[122.56913,10.69215],[122.5691,10.69309],[122.5691,10.69367],[122.56909,10.69463],[122.56908,10.69488],[122.56909,10.69511],[122.5691,10.6959],[122.5691,10.69619],[122.56906,10.6964],[122.56904,10.6965],[122.56848,10.69634],[122.56787,10.69617],[122.56698,10.69589],[122.56638,10.69571],[122.56481,10.69523],[122.56425,10.69505],[122.56327,10.69475],[122.56226,10.69444],[122.56175,10.69429],[122.56139,10.69417],[122.56123,10.69412],[122.56034,10.69384],[122.55981,10.69367],[122.55889,10.69336],[122.55881,10.69335],[122.55872,10.69334],[122.55863,10.69335],[122.55855,10.69336],[122.55835,10.69339],[122.55809,10.69344],[122.55799,10.69346],[122.55739,10.6936],[122.55665,10.69377],[122.55607,10.69388],[122.55567,10.69409],[122.55519,10.69445],[122.5551,10.69449],[122.55503,10.69447],[122.55514,10.69401],[122.55515,10.69396],[122.55517,10.69383],[122.55526,10.69297],[122.55527,10.69294],[122.5553,10.69278],[122.55526,10.69275],[122.55513,10.69269],[122.55479,10.69258],[122.55474,10.69257],[122.55462,10.69253],[122.55444,10.69249],[122.55432,10.69247],[122.55404,10.69245],[122.55386,10.69244],[122.55365,10.69243],[122.55324,10.69241],[122.55249,10.69235],[122.55213,10.69233],[122.55208,10.69232],[122.55186,10.69231],[122.55177,10.69231],[122.55173,10.69231],[122.55144,10.6923],[122.55111,10.69229],[122.55058,10.69229],[122.55049,10.6923],[122.5504,10.69229],[122.55016,10.69225],[122.54997,10.6922],[122.54966,10.69212],[122.54936,10.69204],[122.5493,10.69203],[122.54917,10.692],[122.54899,10.69196],[122.54883,10.69196],[122.54874,10.69198],[122.54871,10.69199],[122.54867,10.692],[122.54853,10.69207],[122.54835,10.69214],[122.54822,10.6922],[122.54776,10.69247],[122.54752,10.69266],[122.54747,10.6927],[122.54728,10.69287],[122.54701,10.69311],[122.54694,10.69318],[122.54679,10.69332],[122.54676,10.69335],[122.54672,10.69338],[122.54649,10.69361],[122.54617,10.69393],[122.54564,10.69445],[122.54554,10.69455],[122.54546,10.69463],[122.54535,10.69477],[122.54534,10.69477],[122.54488,10.6953],[122.54445,10.69599],[122.54488,10.69626],[122.54491,10.69629],[122.54481,10.69637],[122.54467,10.69663],[122.54425,10.69743],[122.54409,10.69774],[122.54408,10.69773],[122.54341,10.69734],[122.54373,10.69688],[122.54382,10.69677],[122.54408,10.6964],[122.5441,10.69638],[122.54414,10.69633],[122.54425,10.6962],[122.54427,10.69617],[122.54434,10.6961],[122.54437,10.69607],[122.54445,10.69599],[122.54488,10.69626],[122.54491,10.69629],[122.54513,10.69642],[122.54521,10.69647],[122.5453,10.69652],[122.54538,10.69657],[122.5456,10.6967],[122.54619,10.69705],[122.54691,10.69746],[122.54724,10.69766],[122.54749,10.69779],[122.54755,10.69782],[122.54756,10.69782],[122.54797,10.69809],[122.54866,10.69849],[122.54894,10.69864]]},"properties":{"name":"Directions from Basement Level, Gaisano Iloilo, La Paz, Iloilo City, Iloilo, Iloilo City Proper, Iloilo City, Iloilo, Philippines to Iloilo City National High School, Molo, Iloilo City, Iloilo","styleUrl":"#line-1267FF-5000-nodesc","stroke-opacity":1,"stroke":"#1267ff","stroke-width":5}}]}