{"type":"FeatureCollection","features":[{"type":"Feature","geometry":{"type":"LineString","coordinates":[[122.54443,10.69601],[122.54445,10.69599],[122.54488,10.69626],[122.54491,10.69629],[122.54513,10.69642],[122.54521,10.69647],[122.54538,10.69657],[122.5456,10.6967],[122.54619,10.69705],[122.54691,10.69746],[122.54724,10.69766],[122.54749,10.69779],[122.54755,10.69782],[122.54756,10.69782],[122.54797,10.69809],[122.54866,10.69849],[122.54917,10.69877],[122.54939,10.69888],[122.54952,10.69896],[122.54977,10.69909],[122.54992,10.69916],[122.55001,10.69919],[122.5502,10.69922],[122.55103,10.69933],[122.5512,10.69935],[122.5516,10.6994],[122.5517,10.69941],[122.55188,10.69943],[122.55231,10.69948],[122.55257,10.69953],[122.55267,10.69959],[122.55317,10.69964],[122.5534,10.69967],[122.55367,10.6997],[122.55391,10.69973],[122.55406,10.69975],[122.55409,10.69975],[122.55427,10.69977],[122.55445,10.6998],[122.55504,10.69988],[122.55564,10.69996],[122.55578,10.69993],[122.55587,10.69994],[122.55599,10.69995],[122.55648,10.7],[122.55658,10.70001],[122.55728,10.70008],[122.55733,10.70008],[122.55758,10.70011],[122.55774,10.70012],[122.55793,10.70013],[122.55921,10.70025],[122.55989,10.7003],[122.55997,10.70036],[122.56052,10.70042],[122.56081,10.70045],[122.56088,10.70047],[122.56102,10.7005],[122.56103,10.7005],[122.56106,10.70051],[122.56124,10.70055],[122.56126,10.70056],[122.56142,10.70059],[122.5616,10.70063],[122.56166,10.70064],[122.56171,10.70065],[122.56175,10.70065],[122.56178,10.70066],[122.56196,10.70068],[122.56268,10.70079],[122.56286,10.70081],[122.563,10.70079],[122.56344,10.70085],[122.56387,10.70091],[122.56464,10.70103],[122.56486,10.70106],[122.56502,10.70108],[122.56532,10.70112],[122.5655,10.70115],[122.56553,10.70115],[122.56574,10.70118],[122.56646,10.70128],[122.56696,10.70135],[122.56709,10.70137],[122.56748,10.70142],[122.56771,10.70146],[122.5679,10.7015],[122.56812,10.70155],[122.56813,10.70155],[122.56823,10.70158],[122.56833,10.70163],[122.5684,10.70171],[122.56846,10.70168],[122.56885,10.70157],[122.56895,10.70155],[122.56898,10.70154],[122.56902,10.70153],[122.56902,10.70152],[122.56903,10.70152],[122.56903,10.70151],[122.56903,10.7015],[122.56904,10.7015],[122.56904,10.70149],[122.56905,10.70148],[122.5691,10.70129],[122.56911,10.70096],[122.56911,10.70009],[122.56911,10.69931],[122.56907,10.69914],[122.56906,10.69818],[122.56906,10.69797],[122.56906,10.69795],[122.56906,10.69781],[122.56905,10.69676],[122.56905,10.69667],[122.56905,10.69663],[122.56906,10.69659],[122.56907,10.69658],[122.5691,10.69651],[122.56904,10.6965],[122.56848,10.69634],[122.56787,10.69617],[122.56786,10.69656],[122.56781,10.69785],[122.56793,10.69784],[122.56804,10.69784],[122.56896,10.69781],[122.56906,10.69781],[122.56905,10.69676],[122.56905,10.69667],[122.56905,10.69663],[122.56906,10.69659],[122.56907,10.69658],[122.5691,10.69651],[122.56915,10.69643],[122.56986,10.69557],[122.57049,10.69475],[122.5705,10.69474],[122.57101,10.69392],[122.57154,10.69363],[122.57162,10.69358],[122.57172,10.69352],[122.57203,10.69331],[122.57257,10.69292],[122.57273,10.69287],[122.57293,10.69273],[122.57336,10.69232],[122.57388,10.6918],[122.57372,10.69166],[122.57357,10.69168],[122.57251,10.69183],[122.57166,10.69198],[122.57165,10.69198],[122.57066,10.69206],[122.57001,10.69206],[122.56999,10.69206],[122.56979,10.69213],[122.56919,10.69212],[122.56919,10.69213],[122.56918,10.69213],[122.56918,10.69214],[122.56917,10.69214],[122.56916,10.69214],[122.56915,10.69214],[122.56915,10.69215],[122.56914,10.69215],[122.56913,10.69215],[122.56912,10.69215],[122.56912,10.69214],[122.56911,10.69214],[122.5691,10.69214],[122.5691,10.69213],[122.56909,10.69213],[122.56908,10.69212],[122.56908,10.69211],[122.56907,10.69211],[122.56907,10.6921],[122.56906,10.69209],[122.56906,10.69208],[122.56906,10.69207],[122.56906,10.69206],[122.56906,10.69205],[122.56907,10.69205],[122.56907,10.69204],[122.56907,10.69203],[122.56908,10.69203],[122.56908,10.69202],[122.56911,10.692],[122.56913,10.692],[122.56914,10.692],[122.56915,10.692],[122.56916,10.692],[122.56917,10.692],[122.56918,10.69201],[122.56919,10.69201],[122.56919,10.69202],[122.5692,10.69202],[122.5692,10.69203],[122.5696,10.69203],[122.56975,10.69202],[122.56979,10.69203],[122.56979,10.69213],[122.56919,10.69212],[122.56919,10.69213],[122.56918,10.69213],[122.56918,10.69214],[122.56917,10.69214],[122.56916,10.69214],[122.56915,10.69214],[122.56915,10.69215],[122.56914,10.69215],[122.56913,10.69215],[122.5691,10.69309],[122.5691,10.69367],[122.56909,10.69463],[122.56908,10.69488],[122.56909,10.69511],[122.5691,10.6959],[122.5691,10.69619],[122.56906,10.6964],[122.56904,10.6965],[122.56848,10.69634],[122.56787,10.69617],[122.56698,10.69589],[122.56638,10.69571],[122.56481,10.69523],[122.56425,10.69505],[122.56327,10.69475],[122.56226,10.69444],[122.56175,10.69429],[122.56139,10.69417],[122.56123,10.69412],[122.56034,10.69384],[122.55981,10.69367],[122.55889,10.69336],[122.55892,10.69331],[122.55923,10.6934],[122.56007,10.69366],[122.56018,10.6937],[122.56175,10.69419],[122.56171,10.69324],[122.56168,10.69294],[122.56162,10.69255],[122.5616,10.69255],[122.56134,10.69261],[122.56073,10.69276],[122.56038,10.69285],[122.56016,10.6929],[122.56013,10.69291],[122.55912,10.69314],[122.55904,10.69318],[122.55902,10.6932],[122.559,10.69321],[122.55897,10.69324],[122.55892,10.69331],[122.55889,10.69336],[122.55881,10.69335],[122.55872,10.69334],[122.55863,10.69335],[122.55855,10.69336],[122.55835,10.69339],[122.55809,10.69344],[122.55799,10.69346],[122.55739,10.6936],[122.55665,10.69377],[122.55607,10.69388],[122.55567,10.69409],[122.55519,10.69445],[122.5551,10.69449],[122.55503,10.69447],[122.55514,10.69401],[122.55515,10.69396],[122.55528,10.69304],[122.55529,10.69298],[122.55531,10.69293],[122.55532,10.6929],[122.55535,10.69282],[122.55526,10.69275],[122.55513,10.69269],[122.55479,10.69258],[122.55474,10.69257],[122.55462,10.69253],[122.55444,10.69249],[122.55432,10.69247],[122.55404,10.69245],[122.55386,10.69244],[122.55365,10.69243],[122.55324,10.69241],[122.55213,10.69233],[122.55208,10.69232],[122.55186,10.69231],[122.55177,10.69231],[122.55173,10.69231],[122.55144,10.6923],[122.55111,10.69229],[122.55058,10.69229],[122.55049,10.6923],[122.5504,10.69229],[122.55016,10.69225],[122.54997,10.6922],[122.54966,10.69212],[122.54936,10.69204],[122.5493,10.69203],[122.54917,10.692],[122.54899,10.69196],[122.54883,10.69196],[122.54874,10.69198],[122.54871,10.69199],[122.54867,10.692],[122.54853,10.69207],[122.54835,10.69214],[122.54846,10.69234],[122.54835,10.69214],[122.54822,10.6922],[122.54776,10.69247],[122.54752,10.69266],[122.54747,10.6927],[122.54728,10.69287],[122.54701,10.69311],[122.54694,10.69318],[122.54679,10.69332],[122.54676,10.69335],[122.54672,10.69338],[122.54649,10.69361],[122.54617,10.69393],[122.54564,10.69445],[122.54554,10.69455],[122.54535,10.69477],[122.54534,10.69477],[122.54488,10.6953],[122.54445,10.69599],[122.54488,10.69626],[122.54491,10.69629],[122.54513,10.69642],[122.54521,10.69647],[122.54523,10.69644],[122.54524,10.69642],[122.54526,10.69639],[122.54528,10.69637],[122.54528,10.69636],[122.54529,10.69635],[122.5453,10.69635],[122.54531,10.69635],[122.54532,10.69634],[122.54534,10.69634],[122.54535,10.69635],[122.54537,10.69635],[122.5454,10.69636],[122.54543,10.69638],[122.54547,10.6964],[122.54548,10.6964]]},"properties":{"name":"Directions from Escoto Natividad Building, M.H. del Pilar corner Lopez Jaena Streets (infront of Police Station), Iloilo City, 5000, Iloilo, Molo, Iloilo City, Iloilo, Philippines to GT Plaza Mall, M.H del Pilar Street, Molo, Iloilo City, Iloilo","styleUrl":"#line-1267FF-5000-nodesc","stroke-opacity":1,"stroke":"#1267ff","stroke-width":5}}]}