{"type":"FeatureCollection","features":[{"type":"Feature","geometry":{"type":"LineString","coordinates":[[122.58711,10.69882],[122.58691,10.69859],[122.58676,10.6984],[122.58659,10.69821],[122.58643,10.69801],[122.58626,10.69781],[122.5861,10.69762],[122.58594,10.69743],[122.58575,10.69721],[122.58551,10.69739],[122.58482,10.69795],[122.58444,10.69799],[122.58436,10.69799],[122.58432,10.69799],[122.58427,10.69799],[122.5842,10.69798],[122.58413,10.69797],[122.58406,10.69793],[122.58398,10.6979],[122.58397,10.69789],[122.58391,10.69784],[122.58385,10.6978],[122.5838,10.69775],[122.58373,10.69769],[122.58368,10.69762],[122.58362,10.69755],[122.58356,10.69747],[122.58352,10.69738],[122.58346,10.69726],[122.58335,10.69732],[122.58331,10.69734],[122.58328,10.69736],[122.58321,10.69741],[122.58317,10.69745],[122.58315,10.69746],[122.58312,10.69752],[122.58309,10.69761],[122.58307,10.69768],[122.58306,10.69776],[122.58304,10.69805],[122.58303,10.69811],[122.58301,10.69815],[122.58299,10.69818],[122.58298,10.6982],[122.58296,10.69821],[122.58293,10.69823],[122.5829,10.69824],[122.58284,10.69825],[122.58279,10.69825],[122.5824,10.69826],[122.58234,10.69827],[122.58229,10.69828],[122.58225,10.6983],[122.58222,10.69833],[122.58219,10.69836],[122.58216,10.69843],[122.58209,10.69858],[122.58198,10.69881],[122.5819,10.69903],[122.58184,10.69915],[122.58175,10.69935],[122.58161,10.69955],[122.58156,10.69959],[122.58153,10.6996],[122.58144,10.69963],[122.58133,10.69965],[122.58113,10.69967],[122.58102,10.6997],[122.58087,10.69977],[122.58074,10.69987],[122.58051,10.70004],[122.57994,10.70046],[122.5789,10.70129],[122.57879,10.70137],[122.57861,10.70144],[122.57849,10.70148],[122.57823,10.70157],[122.57806,10.70162],[122.57786,10.70168],[122.57785,10.70168],[122.57758,10.70173],[122.5773,10.70175],[122.57697,10.70177],[122.57684,10.70177],[122.57657,10.70178],[122.57646,10.70178],[122.5762,10.70179],[122.57615,10.70179],[122.57533,10.70179],[122.57448,10.7018],[122.57398,10.7018],[122.57364,10.7018],[122.57308,10.70181],[122.57306,10.70181],[122.57304,10.70181],[122.57251,10.70182],[122.57232,10.70185],[122.57229,10.70185],[122.5722,10.70189],[122.57213,10.70192],[122.57159,10.70222],[122.57155,10.70224],[122.57151,10.70225],[122.57147,10.70226],[122.57143,10.70225],[122.57134,10.70223],[122.571,10.70211],[122.57091,10.7021],[122.57071,10.70204],[122.56988,10.70179],[122.56977,10.70176],[122.56948,10.70169],[122.56918,10.70163],[122.56917,10.70163],[122.56917,10.70164],[122.56916,10.70164],[122.56915,10.70164],[122.56915,10.70165],[122.56914,10.70165],[122.56913,10.70165],[122.56912,10.70165],[122.56911,10.70165],[122.5691,10.70165],[122.56909,10.70165],[122.56908,10.70164],[122.56907,10.70164],[122.56906,10.70164],[122.56906,10.70163],[122.56905,10.70163],[122.56905,10.70162],[122.56904,10.70162],[122.56904,10.70161],[122.56903,10.70161],[122.56903,10.7016],[122.56903,10.70159],[122.56902,10.70159],[122.56902,10.70158],[122.56902,10.70157],[122.56902,10.70156],[122.56902,10.70155],[122.56902,10.70154],[122.56902,10.70153],[122.56902,10.70152],[122.56903,10.70152],[122.56903,10.70151],[122.56903,10.7015],[122.56904,10.7015],[122.56904,10.70149],[122.56905,10.70148],[122.5691,10.70129],[122.56911,10.70096],[122.56911,10.70054],[122.56911,10.70009],[122.56911,10.69931],[122.56907,10.69914],[122.56906,10.69818],[122.56906,10.69797],[122.56906,10.69795],[122.56906,10.69781],[122.56905,10.69676],[122.56905,10.69667],[122.56905,10.69663],[122.56906,10.69659],[122.56907,10.69658],[122.5691,10.69651],[122.56915,10.69643],[122.56986,10.69557],[122.57049,10.69475],[122.5705,10.69474],[122.57093,10.69404],[122.57101,10.69392],[122.57081,10.69361],[122.5705,10.69315],[122.57014,10.69264],[122.56979,10.69213],[122.56919,10.69212],[122.56919,10.69213],[122.56918,10.69213],[122.56918,10.69214],[122.56917,10.69214],[122.56916,10.69214],[122.56915,10.69214],[122.56915,10.69215],[122.56914,10.69215],[122.56913,10.69215],[122.56912,10.69215],[122.56912,10.69214],[122.56911,10.69214],[122.5691,10.69214],[122.5691,10.69213],[122.56909,10.69213],[122.56908,10.69212],[122.56908,10.69211],[122.56907,10.69211],[122.56907,10.6921],[122.56906,10.69209],[122.56906,10.69208],[122.56906,10.69207],[122.56906,10.69206],[122.56906,10.69205],[122.56907,10.69205],[122.56907,10.69204],[122.56907,10.69203],[122.56908,10.69203],[122.56908,10.69202],[122.56795,10.69191],[122.56795,10.69193],[122.56794,10.69251],[122.56793,10.69294],[122.56791,10.69356],[122.56789,10.69402],[122.56789,10.69441],[122.56789,10.69483],[122.56788,10.69519],[122.56787,10.69608],[122.56787,10.69617],[122.56786,10.69656],[122.56781,10.69785],[122.5678,10.69809],[122.56779,10.6991],[122.56777,10.69939],[122.56771,10.70082],[122.56771,10.70085],[122.5677,10.70125],[122.5677,10.7013],[122.56771,10.70146],[122.5679,10.7015],[122.56813,10.70155],[122.56823,10.70158],[122.56833,10.70163],[122.5684,10.70171],[122.56846,10.70168],[122.56885,10.70157],[122.56895,10.70155],[122.56898,10.70154],[122.56902,10.70153],[122.56902,10.70152],[122.56903,10.70152],[122.56903,10.70151],[122.56903,10.7015],[122.56904,10.7015],[122.56904,10.70149],[122.56905,10.70148],[122.56906,10.70148],[122.56906,10.70147],[122.56907,10.70147],[122.56908,10.70146],[122.56909,10.70146],[122.5691,10.70146],[122.56911,10.70146],[122.56912,10.70146],[122.56913,10.70146],[122.56914,10.70146],[122.56915,10.70146],[122.56916,10.70146],[122.56916,10.70147],[122.56917,10.70147],[122.56918,10.70148],[122.56919,10.70148],[122.56919,10.70149],[122.5692,10.70149],[122.5692,10.7015],[122.56921,10.70151],[122.56921,10.70152],[122.56979,10.70169],[122.56977,10.70176],[122.56964,10.70222],[122.56953,10.7025],[122.56943,10.70277],[122.56933,10.70304],[122.56906,10.70384],[122.56904,10.70395],[122.56896,10.70422],[122.56874,10.70472],[122.56871,10.7048],[122.56871,10.70483],[122.56869,10.70494],[122.56869,10.70501],[122.56871,10.70516],[122.56889,10.7057],[122.5691,10.70648],[122.56912,10.70666],[122.56914,10.70681],[122.56918,10.70726],[122.56961,10.70699],[122.5699,10.70677],[122.57032,10.70643],[122.57039,10.70637],[122.57046,10.70631],[122.57053,10.70625],[122.57079,10.70603],[122.57093,10.70591],[122.571,10.70582],[122.57105,10.70575],[122.57111,10.70567],[122.57122,10.7055],[122.57131,10.70526],[122.57138,10.70498],[122.57143,10.70474],[122.57147,10.70447],[122.57147,10.70442],[122.57148,10.7041],[122.57148,10.70403],[122.57146,10.70339],[122.57145,10.70315],[122.57144,10.70288],[122.57147,10.70226],[122.57151,10.70225],[122.57155,10.70224],[122.57159,10.70222],[122.57213,10.70192],[122.5722,10.70189],[122.57229,10.70185],[122.57232,10.70185],[122.57251,10.70182],[122.57304,10.70181],[122.57306,10.70181],[122.57308,10.70181],[122.57364,10.7018],[122.57398,10.7018],[122.57424,10.7018]]},"properties":{"name":"Directions from Everlasting Street, Lapuz, Iloilo City, Iloilo to PH2F+MM3, Rizal St, Lapuz, Iloilo City, Iloilo, Philippines","styleUrl":"#line-1267FF-5000-nodesc","stroke-opacity":1,"stroke":"#1267ff","stroke-width":5}}]}