{"type":"FeatureCollection","features":[{"type":"Feature","geometry":{"type":"LineString","coordinates":[[122.53835,10.75338],[122.53834,10.75337],[122.53834,10.75336],[122.53833,10.75335],[122.53833,10.75333],[122.53833,10.75326],[122.53829,10.7531],[122.53829,10.75309],[122.53821,10.75286],[122.53827,10.75285],[122.53845,10.75283],[122.53857,10.75282],[122.53857,10.75246],[122.53859,10.7516],[122.53859,10.75123],[122.53861,10.75082],[122.53865,10.75051],[122.53868,10.75027],[122.53882,10.7495],[122.53886,10.74913],[122.53887,10.7491],[122.53888,10.74908],[122.53889,10.74907],[122.53892,10.74904],[122.53893,10.74896],[122.53896,10.74878],[122.539,10.74848],[122.53905,10.74817],[122.5391,10.74782],[122.5392,10.74701],[122.53921,10.74692],[122.53923,10.74662],[122.53926,10.74636],[122.53931,10.74576],[122.53934,10.74554],[122.53942,10.74476],[122.53949,10.74423],[122.5395,10.74412],[122.5395,10.74395],[122.5395,10.74378],[122.53948,10.74357],[122.53944,10.74322],[122.5394,10.74301],[122.53933,10.74268],[122.5392,10.74218],[122.53933,10.74212],[122.5395,10.74205],[122.53964,10.74199],[122.53974,10.74194],[122.53987,10.74186],[122.54003,10.74176],[122.54014,10.74167],[122.54045,10.74133],[122.54047,10.7413],[122.54056,10.74114],[122.54066,10.74103],[122.54088,10.74075],[122.54101,10.7406],[122.54137,10.74028],[122.54191,10.73979],[122.54227,10.73946],[122.54279,10.73898],[122.54343,10.73834],[122.54381,10.73799],[122.5443,10.73755],[122.54448,10.73738],[122.54466,10.73724],[122.54503,10.73691],[122.54512,10.73682],[122.54536,10.7366],[122.54579,10.73622],[122.54601,10.73602],[122.54614,10.7359],[122.5467,10.7354],[122.54695,10.73519],[122.54717,10.735],[122.54745,10.73477],[122.5476,10.73464],[122.54794,10.73434],[122.5483,10.73402],[122.54836,10.73397],[122.5484,10.73393],[122.54878,10.7336],[122.54906,10.73337],[122.54907,10.73336],[122.54923,10.73322],[122.55026,10.7324],[122.55048,10.73222],[122.55057,10.73216],[122.5506,10.73213],[122.55096,10.73182],[122.55113,10.73168],[122.55131,10.73153],[122.5517,10.73118],[122.55206,10.73084],[122.55227,10.73066],[122.55228,10.73065],[122.55234,10.73059],[122.55273,10.73022],[122.55332,10.72967],[122.55345,10.72956],[122.55365,10.72936],[122.55417,10.72889],[122.55421,10.72885],[122.55426,10.72881],[122.55462,10.72848],[122.55507,10.72804],[122.55549,10.72762],[122.55559,10.72751],[122.55563,10.72747],[122.55603,10.72697],[122.55644,10.72648],[122.55712,10.72554],[122.55703,10.72555],[122.55694,10.72548],[122.55681,10.72533],[122.55658,10.72503],[122.55635,10.7247],[122.55639,10.7246],[122.55642,10.72454],[122.55645,10.72449],[122.5565,10.72441],[122.55662,10.72427],[122.55674,10.72417],[122.55686,10.72407],[122.55693,10.724],[122.55726,10.72368],[122.5576,10.72327],[122.55768,10.72314],[122.55795,10.72278],[122.55829,10.72235],[122.55877,10.7217],[122.55889,10.72153],[122.55913,10.72117],[122.55918,10.72111],[122.55924,10.72103],[122.55934,10.72088],[122.55947,10.72069],[122.5595,10.72064],[122.55959,10.72049],[122.55969,10.72033],[122.55978,10.72018],[122.56025,10.7195],[122.56064,10.71891],[122.5608,10.71866],[122.56103,10.71827],[122.56128,10.71786],[122.56146,10.71756],[122.56162,10.71731],[122.56185,10.71695],[122.56193,10.71681],[122.56216,10.71644],[122.5624,10.71609],[122.5625,10.71593],[122.56266,10.71567],[122.56269,10.71555],[122.5632,10.7147],[122.56353,10.71421],[122.56388,10.71369],[122.56406,10.71345],[122.56408,10.71342],[122.56415,10.71331],[122.56424,10.71315],[122.56437,10.71293],[122.56445,10.71286],[122.56454,10.71273],[122.56458,10.71266],[122.56462,10.71261],[122.56472,10.71244],[122.56482,10.71223],[122.56531,10.71143],[122.56569,10.71082],[122.56572,10.71077],[122.56594,10.71042],[122.56599,10.71033],[122.56608,10.7102],[122.5662,10.71],[122.56662,10.70931],[122.56666,10.70925],[122.56667,10.70919],[122.56669,10.70913],[122.56671,10.70907],[122.56673,10.70898],[122.56702,10.70807],[122.5671,10.70778],[122.56713,10.70767],[122.56716,10.70749],[122.5672,10.70733],[122.56723,10.70721],[122.56726,10.70704],[122.56728,10.70698],[122.56731,10.70688],[122.56734,10.7068],[122.5674,10.70663],[122.56741,10.70658],[122.56749,10.70637],[122.56752,10.70627],[122.56769,10.70575],[122.56786,10.70521],[122.5679,10.70507],[122.56791,10.70498],[122.56793,10.70469],[122.56793,10.70465],[122.56793,10.70452],[122.56796,10.70408],[122.56797,10.70383],[122.56799,10.70356],[122.56804,10.70323],[122.56806,10.70303],[122.56807,10.70298],[122.5681,10.70265],[122.5681,10.70261],[122.56814,10.70224],[122.56816,10.7021],[122.56828,10.70183],[122.5684,10.70171],[122.56846,10.70168],[122.56885,10.70157],[122.56895,10.70155],[122.56898,10.70154],[122.56902,10.70153],[122.56902,10.70152],[122.56903,10.70152],[122.56903,10.70151],[122.56903,10.7015],[122.56904,10.7015],[122.56904,10.70149],[122.56905,10.70148],[122.5691,10.70129],[122.56911,10.70096],[122.56911,10.70009],[122.56911,10.69931],[122.56907,10.69914],[122.56906,10.69818],[122.56906,10.69797],[122.56906,10.69795],[122.56906,10.69781],[122.56905,10.69676],[122.56905,10.69667],[122.56905,10.69663],[122.56906,10.69659],[122.56907,10.69658],[122.5691,10.69651],[122.56915,10.69643],[122.56927,10.69629],[122.56986,10.69557],[122.57049,10.69475],[122.5705,10.69474],[122.57101,10.69392],[122.57154,10.69363],[122.57162,10.69358],[122.57172,10.69352],[122.57203,10.69331],[122.57257,10.69292],[122.57273,10.69287],[122.57293,10.69273],[122.57336,10.69232],[122.57388,10.6918],[122.5743,10.69143],[122.5748,10.69106],[122.57498,10.69094],[122.57566,10.69046],[122.57642,10.68993],[122.57723,10.68932],[122.57759,10.68909],[122.57793,10.68888],[122.57866,10.6885],[122.57895,10.68837],[122.5792,10.68827],[122.57959,10.6882],[122.57976,10.68823],[122.57986,10.68827],[122.57989,10.68827],[122.58001,10.68832],[122.58016,10.68838],[122.58079,10.6887],[122.58119,10.6889],[122.5812,10.68891],[122.58154,10.68908],[122.58175,10.68921],[122.58182,10.68926],[122.58195,10.68935],[122.58203,10.68941],[122.58211,10.6895],[122.58216,10.68958],[122.58217,10.68959],[122.58219,10.68966],[122.58225,10.68998],[122.58228,10.69022],[122.58225,10.6903],[122.58226,10.69035],[122.58233,10.69057],[122.58238,10.69076],[122.58253,10.69135],[122.58259,10.69154],[122.58277,10.69222],[122.58259,10.69154],[122.58253,10.69135],[122.58238,10.69076],[122.58233,10.69057],[122.58226,10.69035],[122.58225,10.6903],[122.5822,10.69022],[122.58208,10.68964],[122.582,10.68953],[122.58196,10.68948],[122.58192,10.68943],[122.58187,10.6894],[122.58178,10.68934],[122.58115,10.68898],[122.58092,10.68886],[122.58065,10.68872],[122.58027,10.68854],[122.58004,10.68843],[122.57989,10.68836],[122.57983,10.68834],[122.57979,10.68832],[122.57973,10.68831],[122.5795,10.68828],[122.57941,10.68828],[122.57933,10.6883],[122.57922,10.68833],[122.57908,10.68838],[122.5789,10.68846],[122.57869,10.68857],[122.57829,10.68876],[122.57811,10.68885],[122.57797,10.68892],[122.57789,10.68899],[122.57786,10.68903],[122.57781,10.68909],[122.57777,10.68915],[122.57775,10.68918],[122.57748,10.68963],[122.57734,10.68985],[122.57705,10.69033],[122.57698,10.69045],[122.57691,10.69052],[122.57735,10.69109],[122.57765,10.69149],[122.57767,10.69151],[122.57777,10.69164],[122.57767,10.69151],[122.57765,10.69149],[122.57735,10.69109],[122.57691,10.69052],[122.57689,10.69054],[122.57656,10.69079],[122.57601,10.69115],[122.57549,10.69148],[122.57542,10.69153],[122.57534,10.69158],[122.57508,10.69177],[122.57434,10.69228],[122.57388,10.6918],[122.57341,10.69227],[122.57336,10.69232],[122.57293,10.69273],[122.57273,10.69287],[122.57264,10.69299],[122.57208,10.69337],[122.57207,10.69338],[122.57175,10.69357],[122.57164,10.69363],[122.57156,10.69368],[122.57104,10.69397],[122.57056,10.69486],[122.56992,10.69561],[122.56926,10.69643],[122.56924,10.69646],[122.56921,10.69654],[122.5692,10.69655],[122.56918,10.69659],[122.56917,10.69662],[122.56915,10.69667],[122.56914,10.69673],[122.56913,10.69684],[122.56912,10.69695],[122.56915,10.69781],[122.56914,10.69795],[122.56914,10.69797],[122.56914,10.69819],[122.56916,10.69914],[122.56911,10.69931],[122.56911,10.69999],[122.56911,10.70009],[122.56911,10.70096],[122.5691,10.70129],[122.56915,10.7014],[122.56917,10.70146],[122.56918,10.70148],[122.56919,10.70148],[122.56919,10.70149],[122.5692,10.70149],[122.5692,10.7015],[122.56921,10.70151],[122.56921,10.70152],[122.56921,10.70153],[122.56922,10.70154],[122.56922,10.70155],[122.56922,10.70156],[122.56922,10.70157],[122.56921,10.70157],[122.56921,10.70158],[122.56921,10.70159],[122.56921,10.7016],[122.5692,10.7016],[122.5692,10.70161],[122.56919,10.70162],[122.56918,10.70163],[122.56917,10.70163],[122.56917,10.70164],[122.56916,10.70164],[122.56915,10.70164],[122.56915,10.70165],[122.56914,10.70165],[122.56913,10.70165],[122.56882,10.70177],[122.56871,10.7018],[122.56855,10.70185],[122.5684,10.70195],[122.56834,10.70203],[122.56826,10.70215],[122.56814,10.70224],[122.5681,10.70261],[122.5681,10.70265],[122.56807,10.70298],[122.56806,10.70303],[122.56804,10.70323],[122.56799,10.70356],[122.56797,10.70383],[122.56796,10.70408],[122.56793,10.70452],[122.56793,10.70465],[122.56793,10.70469],[122.56791,10.70498],[122.5679,10.70507],[122.56786,10.70521],[122.56769,10.70575],[122.56752,10.70627],[122.56749,10.70637],[122.56741,10.70658],[122.5674,10.70663],[122.56734,10.7068],[122.56731,10.70688],[122.56728,10.70698],[122.56726,10.70704],[122.56723,10.70721],[122.5672,10.70733],[122.56719,10.7074]]},"properties":{"name":"Directions from GT Town Center Pavia, Pavia, Iloilo to Gaisano Capital City-Iloilo, La Paz, Iloilo City, Iloilo","styleUrl":"#line-1267FF-5000-nodesc","stroke-opacity":1,"stroke":"#1267ff","stroke-width":5}},{"type":"Feature","geometry":{"type":"LineString","coordinates":[[122.56719,10.7074],[122.56716,10.70749],[122.56713,10.70767],[122.5671,10.70778],[122.56751,10.70808],[122.56786,10.70838],[122.56772,10.70851],[122.56757,10.70863],[122.5673,10.70885],[122.5671,10.70901],[122.56691,10.70915],[122.56671,10.70925],[122.56667,10.70931],[122.56623,10.71002],[122.56611,10.71021],[122.56603,10.71035],[122.56597,10.71044],[122.56575,10.71079],[122.56572,10.71085],[122.56534,10.71145],[122.56484,10.71225],[122.56472,10.71244],[122.56462,10.71261],[122.56458,10.71266],[122.56454,10.71273],[122.56445,10.71286],[122.56441,10.71296],[122.56414,10.71346],[122.56412,10.71348],[122.56394,10.71374],[122.5636,10.71425],[122.56327,10.71475],[122.56276,10.7156],[122.56266,10.71567],[122.5625,10.71593],[122.5624,10.71609],[122.56216,10.71644],[122.56193,10.71681],[122.56185,10.71695],[122.56162,10.71731],[122.56146,10.71756],[122.56128,10.71786],[122.56103,10.71827],[122.5608,10.71866],[122.56064,10.71891],[122.56025,10.7195],[122.55978,10.72018],[122.55969,10.72033],[122.55959,10.72049],[122.5595,10.72064],[122.55947,10.72069],[122.55934,10.72088],[122.55918,10.72111],[122.55913,10.72117],[122.55889,10.72153],[122.55877,10.7217],[122.55829,10.72235],[122.55795,10.72278],[122.55768,10.72314],[122.5576,10.72327],[122.55788,10.72348],[122.55835,10.724],[122.55817,10.72424],[122.55806,10.72435],[122.55776,10.72474],[122.55775,10.72475],[122.55732,10.72527],[122.55712,10.72554],[122.5574,10.72565],[122.5576,10.72575],[122.55766,10.7258],[122.5577,10.72583],[122.55773,10.72588],[122.55776,10.72594],[122.5578,10.72606],[122.55784,10.72619],[122.55786,10.72627],[122.55799,10.72677],[122.55803,10.72694],[122.55796,10.72704],[122.55777,10.7273],[122.55764,10.72749],[122.55746,10.72774],[122.55733,10.7279],[122.55709,10.72818],[122.55708,10.72819],[122.5567,10.72856],[122.55665,10.72851],[122.55563,10.72747],[122.55559,10.72751],[122.55549,10.72762],[122.55514,10.72797],[122.55507,10.72804],[122.55462,10.72848],[122.55426,10.72881],[122.55421,10.72885],[122.55365,10.72936],[122.55345,10.72956],[122.55332,10.72967],[122.55273,10.73022],[122.55234,10.73059],[122.55228,10.73065],[122.55227,10.73066],[122.55206,10.73084],[122.5517,10.73118],[122.55131,10.73153],[122.55113,10.73168],[122.55096,10.73182],[122.5506,10.73213],[122.55057,10.73216],[122.55048,10.73222],[122.55026,10.7324],[122.54923,10.73322],[122.54907,10.73336],[122.54906,10.73337],[122.54878,10.7336],[122.5484,10.73393],[122.54836,10.73397],[122.5483,10.73402],[122.54794,10.73434],[122.5476,10.73464],[122.54745,10.73477],[122.54717,10.735],[122.54695,10.73519],[122.5467,10.7354],[122.54614,10.7359],[122.54601,10.73602],[122.54579,10.73622],[122.54536,10.7366],[122.54512,10.73682],[122.54503,10.73691],[122.54466,10.73724],[122.54448,10.73738],[122.5443,10.73755],[122.54343,10.73834],[122.54279,10.73898],[122.54227,10.73946],[122.54191,10.73979],[122.54137,10.74028],[122.54101,10.7406],[122.54088,10.74075],[122.54066,10.74103],[122.54056,10.74114],[122.54047,10.7413],[122.54045,10.74133],[122.54014,10.74167],[122.54003,10.74176],[122.53987,10.74186],[122.53974,10.74194],[122.53964,10.74199],[122.5395,10.74205],[122.53933,10.74212],[122.53945,10.74262],[122.53949,10.7428],[122.53953,10.74299],[122.53955,10.74313],[122.53956,10.74316],[122.53959,10.74337],[122.5396,10.74353],[122.53962,10.74369],[122.53962,10.74383],[122.53962,10.74394],[122.53961,10.74414],[122.5396,10.74427],[122.53958,10.74457],[122.53957,10.74464],[122.53955,10.74477],[122.53964,10.74479],[122.53972,10.74481],[122.53978,10.74483],[122.53984,10.74486],[122.53992,10.7449],[122.54001,10.74497],[122.54007,10.74503],[122.54012,10.74508],[122.54015,10.74513],[122.5402,10.74532],[122.54021,10.74538],[122.54022,10.74544],[122.54023,10.74559],[122.54026,10.74564],[122.54028,10.74566],[122.54031,10.7457],[122.54034,10.74571],[122.54038,10.74572],[122.54043,10.74573],[122.54045,10.74573],[122.54093,10.7458],[122.54098,10.7458],[122.54101,10.7458],[122.54105,10.7458],[122.54111,10.74578],[122.54114,10.74576]]},"properties":{"name":"Directions from Gaisano Capital City-Iloilo, La Paz, Iloilo City, Iloilo to CHRIST THE KING MEMORIAL PARK, Diversion Rd, Jaro, Iloilo City, Iloilo","styleUrl":"#line-1267FF-5000-nodesc","stroke-opacity":1,"stroke":"#1267ff","stroke-width":5}}]}