{"type":"FeatureCollection","features":[{"type":"Feature","geometry":{"type":"LineString","coordinates":[[122.53835,10.75338],[122.53834,10.75337],[122.53834,10.75336],[122.53833,10.75335],[122.53833,10.75333],[122.53833,10.75326],[122.53829,10.7531],[122.53829,10.75309],[122.53821,10.75286],[122.53827,10.75285],[122.53845,10.75283],[122.53857,10.75282],[122.53857,10.75246],[122.53859,10.7516],[122.53859,10.75123],[122.53861,10.75082],[122.53865,10.75051],[122.53868,10.75027],[122.53882,10.7495],[122.53886,10.74913],[122.53887,10.7491],[122.53888,10.74908],[122.53889,10.74907],[122.53892,10.74904],[122.53893,10.74896],[122.53896,10.74878],[122.539,10.74848],[122.53905,10.74817],[122.5391,10.74782],[122.5392,10.74701],[122.53921,10.74692],[122.53923,10.74662],[122.53926,10.74636],[122.53931,10.74576],[122.53934,10.74554],[122.53942,10.74476],[122.53949,10.74423],[122.5395,10.74412],[122.5395,10.74395],[122.5395,10.74378],[122.53948,10.74357],[122.53944,10.74322],[122.5394,10.74301],[122.53933,10.74268],[122.5392,10.74218],[122.53909,10.74181],[122.5389,10.74125],[122.53837,10.73955],[122.53829,10.73923],[122.53823,10.73893],[122.5382,10.73867],[122.53818,10.73841],[122.53817,10.73825],[122.53817,10.73768],[122.5382,10.73728],[122.53823,10.7371],[122.53828,10.73681],[122.53831,10.73661],[122.53837,10.73637],[122.53842,10.73617],[122.53848,10.73599],[122.53854,10.7358],[122.53864,10.73552],[122.5388,10.73513],[122.53889,10.73492],[122.53901,10.73469],[122.53915,10.73444],[122.53933,10.73416],[122.53949,10.73392],[122.53963,10.73373],[122.53976,10.73357],[122.53992,10.73338],[122.54003,10.73326],[122.54033,10.73296],[122.54096,10.73243],[122.5411,10.73232],[122.54144,10.73205],[122.54176,10.7318],[122.54182,10.73175],[122.54251,10.73117],[122.54254,10.73115],[122.54267,10.73104],[122.54293,10.73084],[122.54346,10.73042],[122.54431,10.72974],[122.54461,10.7295],[122.54531,10.72895],[122.54684,10.72768],[122.54781,10.72686],[122.54789,10.72678],[122.54818,10.72651],[122.54841,10.72628],[122.5488,10.72588],[122.54893,10.72574],[122.54914,10.72545],[122.54943,10.72505],[122.54954,10.7249],[122.54936,10.72469],[122.54933,10.72466],[122.54932,10.72463],[122.54929,10.72458],[122.54926,10.7245],[122.54917,10.72416],[122.54915,10.72406],[122.54914,10.72402],[122.54907,10.72371],[122.54902,10.7235],[122.54894,10.72319],[122.54891,10.72303],[122.5489,10.72283],[122.54886,10.72267],[122.54889,10.72247],[122.5489,10.72243],[122.54891,10.72238],[122.54893,10.72231],[122.54897,10.72216],[122.54903,10.72186],[122.54904,10.72174],[122.54903,10.72165],[122.54902,10.72159],[122.549,10.7215],[122.54882,10.72107],[122.54831,10.71993],[122.54824,10.71976],[122.54765,10.71853],[122.54757,10.71838],[122.5475,10.71826],[122.54746,10.7182],[122.54737,10.71804],[122.54719,10.71778],[122.54713,10.7177],[122.54704,10.71757],[122.54699,10.7175],[122.54698,10.71748],[122.54661,10.71702],[122.54658,10.71698],[122.54642,10.71674],[122.54631,10.71655],[122.54623,10.71642],[122.54612,10.71614],[122.54609,10.71606],[122.54606,10.71599],[122.54596,10.71571],[122.54589,10.71546],[122.54584,10.71544],[122.54581,10.71542],[122.5458,10.71542],[122.54578,10.7154],[122.54574,10.71534],[122.54571,10.71528],[122.54564,10.71509],[122.5456,10.71499],[122.54578,10.71493],[122.5459,10.71489],[122.54597,10.71514],[122.54607,10.71566],[122.54612,10.71584],[122.54621,10.7161],[122.54628,10.71627],[122.54634,10.71641],[122.54648,10.71666],[122.54654,10.71676],[122.54666,10.71693],[122.54698,10.71735],[122.54706,10.71745],[122.54721,10.71764],[122.54732,10.71779],[122.54755,10.71814],[122.54769,10.71837],[122.54775,10.71849],[122.54778,10.71854],[122.54784,10.71855],[122.54807,10.71857],[122.5485,10.71861],[122.54875,10.71863],[122.54918,10.71868],[122.54983,10.71874],[122.54999,10.71876],[122.55008,10.71877],[122.55014,10.71878],[122.55021,10.7188],[122.5504,10.71886],[122.55058,10.71892],[122.55103,10.71909],[122.55139,10.71923],[122.55199,10.71946],[122.55212,10.7195],[122.55219,10.71935],[122.55225,10.71919],[122.5523,10.71909],[122.55242,10.71881],[122.55243,10.71879],[122.55257,10.71832],[122.55268,10.71783],[122.55276,10.71739],[122.55279,10.71681],[122.55277,10.71616],[122.55273,10.71583],[122.55273,10.7158],[122.55269,10.71556],[122.55261,10.71504],[122.55228,10.71519],[122.55204,10.7149],[122.55192,10.7146],[122.55176,10.71395],[122.55175,10.7139],[122.55166,10.71355],[122.55159,10.71329],[122.5515,10.71302],[122.55186,10.71294],[122.55205,10.7129],[122.55194,10.71245],[122.55181,10.71194],[122.55176,10.71169],[122.55171,10.71146],[122.55167,10.71127],[122.55164,10.7111],[122.55158,10.7107],[122.55157,10.71049],[122.55156,10.71032],[122.55156,10.71025],[122.55158,10.70983],[122.55159,10.70964],[122.55162,10.70945],[122.55165,10.70927],[122.55168,10.70912],[122.55171,10.70894],[122.5518,10.7086],[122.55209,10.70756],[122.55214,10.70737],[122.55227,10.70687],[122.55235,10.70658],[122.55253,10.70591],[122.55271,10.70523],[122.55276,10.705],[122.55282,10.70476],[122.55288,10.70452],[122.55296,10.70417],[122.55311,10.70364],[122.55319,10.70333],[122.55337,10.70268],[122.55339,10.70263],[122.55345,10.70235],[122.55364,10.70168],[122.55382,10.70101],[122.55384,10.70095],[122.55385,10.70089],[122.55388,10.70078],[122.55406,10.7001],[122.55415,10.69985],[122.55419,10.6997],[122.55424,10.69953],[122.55439,10.69917],[122.55448,10.6989],[122.55453,10.69873],[122.55455,10.69863],[122.55456,10.69854],[122.55459,10.6983],[122.55463,10.69791],[122.55464,10.69787],[122.55467,10.69769],[122.55469,10.69754],[122.55471,10.69746],[122.55478,10.69689],[122.55483,10.69653],[122.55487,10.69593],[122.55489,10.69569],[122.55503,10.69447],[122.55514,10.69401],[122.55515,10.69396],[122.55517,10.69383],[122.55526,10.69297],[122.55527,10.69294],[122.5553,10.69278],[122.55534,10.69269],[122.5553,10.69278],[122.55536,10.69282],[122.55547,10.69289],[122.55556,10.69294],[122.55564,10.693],[122.55576,10.69312],[122.55591,10.69325],[122.556,10.69333],[122.55635,10.6936],[122.55644,10.69366],[122.55649,10.69368],[122.55658,10.69369],[122.55663,10.69369],[122.55673,10.69368],[122.55694,10.69364],[122.55707,10.6936],[122.55737,10.69352],[122.55762,10.69346],[122.55774,10.69344],[122.5578,10.69342],[122.55854,10.69329],[122.55872,10.69328],[122.55882,10.69328],[122.55885,10.69329],[122.55892,10.69331],[122.56007,10.69366],[122.56018,10.6937],[122.56175,10.69419],[122.56206,10.69428],[122.56328,10.69466],[122.56427,10.69496],[122.56481,10.69513],[122.56479,10.69462],[122.56485,10.69465],[122.56487,10.69467],[122.56488,10.69468],[122.56487,10.69467],[122.56485,10.69465],[122.56479,10.69462],[122.56479,10.69442],[122.56477,10.69378],[122.56476,10.69331],[122.56523,10.69335],[122.56525,10.69335],[122.56531,10.69336],[122.56536,10.69336],[122.56541,10.69337],[122.56546,10.69337],[122.56555,10.69338],[122.56558,10.69338],[122.56574,10.6934],[122.56592,10.69341],[122.566,10.69342],[122.5661,10.69343],[122.56634,10.69345],[122.56677,10.69348],[122.56678,10.69319],[122.56677,10.6931],[122.56678,10.69319],[122.56677,10.69348],[122.56634,10.69345],[122.56636,10.69394],[122.56636,10.69439],[122.56637,10.69486],[122.56639,10.69561],[122.56699,10.6958],[122.56787,10.69608],[122.56787,10.69617],[122.56786,10.69656],[122.56781,10.69765],[122.56781,10.69785],[122.56771,10.69785],[122.56672,10.69785],[122.56642,10.69788],[122.56586,10.69781],[122.56537,10.69775],[122.56479,10.69768],[122.5644,10.69763],[122.56429,10.69761],[122.56383,10.69755],[122.56372,10.69753],[122.56328,10.69746],[122.56289,10.69741],[122.56173,10.69726],[122.56064,10.69713],[122.5603,10.69708],[122.56015,10.69706],[122.55896,10.69697],[122.55862,10.69693],[122.5579,10.69685],[122.55784,10.69684],[122.55779,10.69684],[122.5566,10.69672],[122.55638,10.69669],[122.55617,10.69667],[122.55616,10.69666],[122.55604,10.69665],[122.55488,10.69654],[122.55481,10.69705]]},"properties":{"name":"Directions from GT Town Center Pavia, Pavia, Iloilo to UPV - College of Management, Iloilo City Proper, Iloilo City, Iloilo","styleUrl":"#line-1267FF-5000-nodesc","stroke-opacity":1,"stroke":"#1267ff","stroke-width":5}}]}