{"type":"FeatureCollection","features":[{"type":"Feature","geometry":{"type":"LineString","coordinates":[[122.57341,10.69227],[122.57388,10.6918],[122.57372,10.69166],[122.57357,10.69168],[122.57251,10.69183],[122.5722,10.69188],[122.57166,10.69198],[122.57165,10.69198],[122.57066,10.69206],[122.57001,10.69206],[122.56999,10.69206],[122.56979,10.69213],[122.56919,10.69212],[122.56919,10.69213],[122.56918,10.69213],[122.56918,10.69214],[122.56917,10.69214],[122.56916,10.69214],[122.56915,10.69214],[122.56915,10.69215],[122.56914,10.69215],[122.56913,10.69215],[122.5691,10.69309],[122.5691,10.69367],[122.56909,10.69463],[122.56908,10.69488],[122.56909,10.69511],[122.5691,10.6959],[122.5691,10.69619],[122.56906,10.6964],[122.56904,10.6965],[122.56787,10.69617],[122.56698,10.69589],[122.56638,10.69571],[122.56481,10.69523],[122.56425,10.69505],[122.56327,10.69475],[122.56226,10.69444],[122.56175,10.69429],[122.56172,10.69487],[122.56172,10.69559],[122.56172,10.6957],[122.56172,10.69559],[122.56126,10.69578],[122.5608,10.69599],[122.56067,10.69605],[122.56034,10.6962],[122.55996,10.69639],[122.55965,10.69657],[122.55943,10.69667],[122.55923,10.69676],[122.55919,10.69678],[122.55909,10.69684],[122.55904,10.69688],[122.55896,10.69697],[122.55862,10.69693],[122.5579,10.69685],[122.55784,10.69684],[122.55779,10.69684],[122.5566,10.69672],[122.55638,10.69669],[122.55617,10.69667],[122.55616,10.69666],[122.55604,10.69665],[122.55488,10.69654],[122.55483,10.69653],[122.55404,10.69646],[122.55394,10.69645],[122.55265,10.69633],[122.55198,10.69627],[122.55163,10.69624],[122.55147,10.69622],[122.5511,10.69619],[122.55093,10.69617],[122.5509,10.69617],[122.55075,10.69616],[122.55062,10.69615],[122.5501,10.69609],[122.54966,10.69603],[122.54955,10.69602],[122.54948,10.69602],[122.54917,10.69599],[122.54844,10.69591],[122.54835,10.6959],[122.54832,10.6959],[122.54782,10.69585],[122.54771,10.69584],[122.5475,10.69582],[122.54695,10.69577],[122.54678,10.69574],[122.54664,10.69571],[122.54655,10.69568],[122.54647,10.69564],[122.54643,10.69561],[122.54641,10.69559],[122.54635,10.69551],[122.54624,10.69533],[122.54608,10.6951],[122.54589,10.69481],[122.54576,10.69463],[122.54564,10.69445],[122.54495,10.69345],[122.54448,10.69282],[122.54437,10.69267],[122.54427,10.69254],[122.54425,10.69252],[122.54417,10.69241],[122.54396,10.69216],[122.54381,10.69196],[122.54352,10.69156],[122.54335,10.69133],[122.5432,10.69115],[122.54302,10.69095],[122.54271,10.6907],[122.54255,10.6906],[122.54242,10.69053],[122.54239,10.69051],[122.54235,10.69049],[122.54218,10.69039],[122.54155,10.69004],[122.54147,10.68999],[122.54126,10.68989],[122.54073,10.68966],[122.54048,10.68958],[122.54031,10.68951],[122.54024,10.68947],[122.54015,10.68942],[122.54007,10.68937],[122.53987,10.68921],[122.53954,10.68895],[122.53924,10.6887],[122.53902,10.68854],[122.53893,10.68848],[122.53885,10.68843],[122.53878,10.68839],[122.53871,10.68836],[122.53854,10.68828],[122.53847,10.68825],[122.53838,10.68823],[122.53824,10.68819],[122.53808,10.68817],[122.53784,10.68814],[122.53764,10.68811],[122.53759,10.6881],[122.53709,10.68805],[122.53656,10.68801],[122.5362,10.68798],[122.53615,10.68798],[122.5361,10.68799],[122.53603,10.688],[122.53598,10.68802],[122.53593,10.68803],[122.53587,10.68806],[122.5358,10.6881],[122.5357,10.68816],[122.53563,10.68822],[122.53555,10.6883],[122.53537,10.68851],[122.53508,10.68881],[122.53496,10.68899],[122.53491,10.68909],[122.53487,10.68915],[122.53487,10.68917],[122.53485,10.6892],[122.53482,10.68927],[122.53469,10.68956],[122.53457,10.68982],[122.53448,10.69004],[122.53438,10.69025],[122.53422,10.69062],[122.53412,10.69087],[122.53389,10.69142],[122.53432,10.69164],[122.5347,10.69187],[122.53496,10.69203],[122.53506,10.69209],[122.53511,10.69213],[122.53541,10.69234],[122.53562,10.69249],[122.53603,10.69277],[122.53644,10.69304],[122.53678,10.69327],[122.53715,10.69353],[122.53741,10.69371],[122.53872,10.69457],[122.53916,10.69489],[122.5396,10.69518],[122.53965,10.6952],[122.53996,10.69538],[122.53999,10.6954],[122.54032,10.69556],[122.5407,10.6958],[122.54086,10.69589],[122.54161,10.69637],[122.54179,10.69648],[122.54202,10.69662],[122.54214,10.6967],[122.54236,10.69682],[122.54237,10.69683],[122.54277,10.69702],[122.54341,10.69734],[122.54345,10.69728],[122.54382,10.69677],[122.54408,10.6964],[122.5441,10.69638],[122.54414,10.69633],[122.54425,10.6962],[122.54427,10.69617],[122.54434,10.6961],[122.54437,10.69607],[122.54445,10.69599],[122.54488,10.6953],[122.54534,10.69477],[122.54535,10.69477],[122.54546,10.69463],[122.54554,10.69455],[122.54561,10.69447]]},"properties":{"name":"Directions from Plaza Libertad, Zamora Street, Iloilo City Proper, Iloilo City, Iloilo to 216 Locsin St, Molo, Iloilo City, Iloilo, Philippines","styleUrl":"#line-1267FF-5000-nodesc","stroke-opacity":1,"stroke":"#1267ff","stroke-width":5}}]}