{"type":"FeatureCollection","features":[{"type":"Feature","geometry":{"type":"LineString","coordinates":[[122.49977,10.69348],[122.50003,10.6934],[122.50067,10.6932],[122.50076,10.69317],[122.50231,10.69265],[122.50292,10.69244],[122.50398,10.6922],[122.50441,10.6921],[122.50448,10.69209],[122.50509,10.69195],[122.5062,10.69173],[122.50689,10.69159],[122.50695,10.69158],[122.50753,10.69146],[122.5079,10.69139],[122.50845,10.69124],[122.50904,10.69107],[122.51047,10.69065],[122.51096,10.69052],[122.51135,10.69041],[122.51222,10.69014],[122.51238,10.69009],[122.51267,10.69001],[122.51282,10.68997],[122.51296,10.68993],[122.51297,10.68993],[122.5132,10.68989],[122.51353,10.68986],[122.51362,10.68984],[122.5147,10.68964],[122.51531,10.68942],[122.51561,10.6893],[122.51601,10.68911],[122.5161,10.68907],[122.51639,10.68893],[122.51648,10.68891],[122.51673,10.68886],[122.51788,10.6889],[122.51824,10.68891],[122.51826,10.68891],[122.51947,10.68894],[122.51955,10.68894],[122.51985,10.68894],[122.52072,10.68895],[122.52085,10.68896],[122.52089,10.68896],[122.5211,10.68895],[122.5214,10.68896],[122.52169,10.68897],[122.52273,10.68901],[122.52301,10.68903],[122.52366,10.68905],[122.52395,10.68906],[122.52437,10.68906],[122.52461,10.68905],[122.5248,10.68905],[122.52492,10.68904],[122.52508,10.68902],[122.52511,10.68902],[122.52534,10.68899],[122.52568,10.68894],[122.52621,10.68885],[122.52687,10.68873],[122.52702,10.68872],[122.52708,10.68872],[122.5271,10.68872],[122.52718,10.68872],[122.52724,10.68873],[122.52734,10.68874],[122.52742,10.68876],[122.52749,10.68877],[122.52768,10.68882],[122.52808,10.68892],[122.5281,10.68892],[122.52833,10.68896],[122.52844,10.68899],[122.52854,10.68902],[122.52856,10.68902],[122.52864,10.68905],[122.52874,10.68909],[122.52891,10.68916],[122.52909,10.68924],[122.52921,10.6893],[122.52928,10.68933],[122.52953,10.68945],[122.53026,10.68982],[122.53041,10.6899],[122.53065,10.69002],[122.53091,10.69016],[122.5311,10.69024],[122.53142,10.69039],[122.53164,10.69048],[122.53178,10.69054],[122.5319,10.69059],[122.53211,10.69066],[122.53253,10.69081],[122.5328,10.69091],[122.53336,10.69115],[122.53389,10.69142],[122.53432,10.69164],[122.5347,10.69187],[122.53496,10.69203],[122.53506,10.69209],[122.53511,10.69213],[122.53541,10.69234],[122.53562,10.69249],[122.53603,10.69277],[122.53644,10.69304],[122.53678,10.69327],[122.53715,10.69353],[122.53741,10.69371],[122.53872,10.69457],[122.53916,10.69489],[122.5396,10.69518],[122.53965,10.6952],[122.53996,10.69538],[122.53999,10.6954],[122.54032,10.69556],[122.5407,10.6958],[122.54086,10.69589],[122.54161,10.69637],[122.54179,10.69648],[122.54202,10.69662],[122.54214,10.6967],[122.54236,10.69682],[122.54237,10.69683],[122.54277,10.69702],[122.54341,10.69734],[122.54382,10.69677],[122.54408,10.6964],[122.5441,10.69638],[122.54414,10.69633],[122.54425,10.6962],[122.54427,10.69617],[122.54434,10.6961],[122.54437,10.69607],[122.54445,10.69599],[122.54488,10.69626],[122.54491,10.69629],[122.54513,10.69642],[122.54521,10.69647],[122.5453,10.69652],[122.54538,10.69657],[122.5456,10.6967],[122.54619,10.69705],[122.54691,10.69746],[122.54724,10.69766],[122.54749,10.69779],[122.54755,10.69782],[122.54756,10.69782],[122.54797,10.69809],[122.54866,10.69849],[122.54917,10.69877],[122.54939,10.69888],[122.54952,10.69896],[122.54977,10.69909],[122.54992,10.69916],[122.55001,10.69919],[122.5502,10.69922],[122.55103,10.69933],[122.55117,10.69935],[122.55156,10.6994],[122.5517,10.69941],[122.55182,10.69942],[122.55231,10.69948],[122.55257,10.69953],[122.55267,10.69959],[122.55317,10.69964],[122.5534,10.69967],[122.55367,10.6997],[122.55391,10.69973],[122.55406,10.69975],[122.55409,10.69975],[122.55427,10.69977],[122.55445,10.6998],[122.55504,10.69988],[122.55564,10.69996],[122.55578,10.69993],[122.55587,10.69994],[122.55599,10.69995],[122.55648,10.7],[122.55658,10.70001],[122.55728,10.70008],[122.55733,10.70008],[122.55758,10.70011],[122.55774,10.70012],[122.55793,10.70013],[122.55921,10.70025],[122.55989,10.7003],[122.55992,10.70031],[122.56024,10.70034],[122.56075,10.70039],[122.56101,10.70044],[122.56111,10.70046],[122.5613,10.70051],[122.56135,10.70052],[122.56149,10.70055],[122.56177,10.70059],[122.56222,10.70066],[122.56285,10.70076],[122.563,10.70079],[122.56344,10.70085],[122.56387,10.70091],[122.56464,10.70103],[122.56486,10.70106],[122.56502,10.70108],[122.56532,10.70112],[122.5655,10.70115],[122.56553,10.70115],[122.56574,10.70118],[122.56646,10.70128],[122.56696,10.70135],[122.56709,10.70137],[122.56748,10.70142],[122.56771,10.70146],[122.5679,10.7015],[122.56813,10.70155],[122.56823,10.70158],[122.56833,10.70163],[122.5684,10.70171],[122.56846,10.70168],[122.56885,10.70157],[122.56895,10.70155],[122.56898,10.70154],[122.56902,10.70153],[122.56902,10.70152],[122.56903,10.70152],[122.56903,10.70151],[122.56903,10.7015],[122.56904,10.7015],[122.56904,10.70149],[122.56905,10.70148],[122.5691,10.70129],[122.56911,10.70096],[122.56911,10.70085],[122.56911,10.70009],[122.56911,10.69931],[122.56907,10.69914],[122.56906,10.69818],[122.56906,10.69797],[122.56906,10.69795],[122.56906,10.69781],[122.56905,10.69676],[122.56905,10.69667],[122.56905,10.69663],[122.56906,10.69659],[122.56907,10.69658],[122.5691,10.69651],[122.56915,10.69643],[122.56986,10.69557],[122.57049,10.69475],[122.5705,10.69474],[122.57101,10.69392],[122.57129,10.69376],[122.57154,10.69363],[122.57162,10.69358],[122.57172,10.69352],[122.57203,10.69331],[122.57257,10.69292],[122.57273,10.69287],[122.57293,10.69273],[122.57336,10.69232],[122.57388,10.6918],[122.57372,10.69166],[122.57357,10.69168],[122.57316,10.69174],[122.57251,10.69183],[122.57166,10.69198],[122.57165,10.69198],[122.57066,10.69206],[122.57001,10.69206],[122.56999,10.69206],[122.56979,10.69213],[122.56919,10.69212],[122.56919,10.69213],[122.56918,10.69213],[122.56918,10.69214],[122.56917,10.69214],[122.56916,10.69214],[122.56915,10.69214],[122.56915,10.69215],[122.56914,10.69215],[122.56913,10.69215],[122.56912,10.69215],[122.56912,10.69214],[122.56911,10.69214],[122.5691,10.69214],[122.5691,10.69213],[122.56909,10.69213],[122.56908,10.69212],[122.56908,10.69211],[122.56907,10.69211],[122.56907,10.6921],[122.56906,10.69209],[122.56906,10.69208],[122.56906,10.69207],[122.56906,10.69206],[122.56906,10.69205],[122.56907,10.69205],[122.56907,10.69204],[122.56907,10.69203],[122.56908,10.69203],[122.56908,10.69202],[122.56795,10.69191],[122.56795,10.69193],[122.56794,10.69251],[122.56793,10.69294],[122.56791,10.69356],[122.56789,10.69402],[122.56789,10.69441],[122.56789,10.69483],[122.56787,10.69608],[122.56787,10.69617],[122.56786,10.69656],[122.56781,10.69785],[122.56777,10.69785],[122.56771,10.69785],[122.56672,10.69785],[122.56642,10.69788],[122.56586,10.69781],[122.56537,10.69775],[122.56479,10.69768],[122.5648,10.69748],[122.56481,10.69523],[122.56481,10.69513],[122.56479,10.69462],[122.56479,10.69442],[122.56477,10.69378],[122.56476,10.69333],[122.56476,10.69331],[122.56325,10.6932],[122.56325,10.69365],[122.56327,10.6944],[122.56328,10.69466],[122.56328,10.69469],[122.56327,10.69475],[122.56226,10.69444],[122.56175,10.69429],[122.56139,10.69417],[122.56123,10.69412],[122.56034,10.69384],[122.55981,10.69367],[122.55889,10.69336],[122.55881,10.69335],[122.55872,10.69334],[122.55863,10.69335],[122.55855,10.69336],[122.55835,10.69339],[122.55809,10.69344],[122.55799,10.69346],[122.55739,10.6936],[122.55665,10.69377],[122.55607,10.69388],[122.55567,10.69409],[122.55519,10.69445],[122.5551,10.69449],[122.55503,10.69447]]},"properties":{"name":"Directions from Mohon Terminal, Osmeña Street, Villa Arevalo District, Iloilo City, Iloilo to MHV3+PXQ, Infante St, Molo, Iloilo City, 5000 Iloilo, Philippines","styleUrl":"#line-1267FF-5000-nodesc","stroke-opacity":1,"stroke":"#1267ff","stroke-width":5}},{"type":"Feature","geometry":{"type":"LineString","coordinates":[[122.55503,10.69447],[122.5551,10.69449],[122.55506,10.69461],[122.55505,10.69467],[122.555,10.69521],[122.55499,10.69542],[122.55496,10.6957],[122.55491,10.69628],[122.55488,10.69654],[122.55476,10.69747],[122.55473,10.69769],[122.55462,10.69861],[122.55461,10.69868],[122.5546,10.69873],[122.55458,10.69884],[122.55448,10.69909],[122.5544,10.69929],[122.55435,10.69947],[122.55436,10.6996],[122.55437,10.69963],[122.55438,10.69965],[122.5544,10.69967],[122.55442,10.69969],[122.55444,10.69971],[122.55451,10.69975],[122.55479,10.69978],[122.55493,10.6998],[122.55528,10.69984],[122.55558,10.69988],[122.55567,10.6999],[122.55574,10.69991],[122.55575,10.69992],[122.55578,10.69993],[122.55576,10.70004],[122.55566,10.69998],[122.55564,10.69996],[122.55504,10.69988],[122.55445,10.6998],[122.55427,10.69977],[122.55409,10.69975],[122.55406,10.69975],[122.55391,10.69973],[122.55367,10.6997],[122.55349,10.69968]]},"properties":{"name":"Directions from MHV3+PXQ, Infante St, Molo, Iloilo City, 5000 Iloilo, Philippines to 102 General Luna St, Molo, Iloilo City, Iloilo, Philippines","styleUrl":"#line-1267FF-5000-nodesc","stroke-opacity":1,"stroke":"#1267ff","stroke-width":5}}]}